buildingID,buildingName,country,locationID,locationName,postalCode,street,longitude,latitude,geoLink,portalLink
ADL20,Regus Virtual Office,AUSTRALIA,ADL,Adelaide,5000,25 Grenfell Street,138.60084,-34.9247869,http://maps.google.de/maps?f=q&source=s_q&hl=de&geocode=&q=-34.9247869 138.60084&z=16&iwloc=A,https://go.sap.corp/ADL20
BNE03,Office-140 Creek Street,AUSTRALIA,BNE,Brisbane,4000,140 Creek Street,153.0274374,-27.4661287,http://maps.google.de/maps?f=q&source=s_q&hl=de&geocode=&q=-27.4661287 153.0274374&z=16&iwloc=A,https://go.sap.corp/nej
CBR02,Equinox 4,AUSTRALIA,CBR,Canberra,2600,70 Kent Street,149.097188,-35.32092,http://maps.google.de/maps?f=q&source=s_q&hl=de&geocode=&q=-35.320920 149.097188&z=16&iwloc=A,https://go.sap.corp/nww
CBR45,Braddon (Qualitrics),AUSTRALIA,CBR,Canberra,2612,22 Lonsdale Street,149.13317,-35.272765,http://maps.google.de/maps?f=q&source=s_q&hl=de&geocode=&q=-35.272765 149.13317&z=16&iwloc=A,
MEL02,484 St. Kilda Road,AUSTRALIA,MEL,Melbourne,3004,484 St. Kilda Road,144.977283,-37.843228,http://maps.google.de/maps?f=q&source=s_q&hl=de&geocode=&q=-37.843228 144.977283&z=16&iwloc=A,https://go.sap.corp/MEL02Melbourne
MEL03,474 St. Kilda Road,AUSTRALIA,MEL,Melbourne,3004,474 St. Kilda Road,"14,497,638,888","-3,784,138,891",http://maps.google.de/maps?f=q&source=s_q&hl=de&geocode=&q=-37.84138891 144.97638888&z=16&iwloc=A,
MEL80,East Melbourne (CallidusCloud),AUSTRALIA,MEL,Melbourne,3002,8/176 Wellington Parade,144.984237,-37.816062,http://maps.google.de/maps?f=q&source=s_q&hl=de&geocode=&q=-37.816062 144.984237&z=16&iwloc=A,
PER04,109 St. George's Terrace,AUSTRALIA,PER,Perth,6000,109 St. George's Terrace,115.8565664,-31.9550817,http://maps.google.de/maps?f=q&source=s_q&hl=de&geocode=&q=-31.9550817 115.856566400&z=16&iwloc=A,https://go.sap.corp/PER04
SYD21,77 Berry Street - no lease interim for SYD03,AUSTRALIA,SYD,Sydney,2060,77 Berry Street,"1,512,082,271","-338,380,416",http://maps.google.de/maps?f=q&source=s_q&hl=de&geocode=&q=-33.8380416 151.2082271&z=16&iwloc=A,https://go.sap.corp/SYD21
SYD45,225 George Street (Qualtrics),AUSTRALIA,SYD,Sydney,2000,225 George Street,151.207112,-33.862898,http://maps.google.de/maps?f=q&source=s_q&hl=de&geocode=&q=-33.862898 151.207112&z=16&iwloc=A,
SYD46,50 Pitt Street (Qualtrics),AUSTRALIA,SYD,Sydney,2000,50 Pitt Street,151.209308,-33.863267,http://maps.google.de/maps?f=q&source=s_q&hl=de&geocode=&q=-33.863267 151.209308&z=16&iwloc=A,
SYD85,123 Epping Road (Concur),AUSTRALIA,SYD,Sydney,2113,"Suite 402, 123 Epping Road",151.11823,-33.78422,http://maps.google.de/maps?f=q&source=s_q&hl=de&geocode=&q=-33.78422 151.11823&z=16&iwloc=A,
BJG07,World Profit Center,CHINA,BJG,Beijing,100125,16 Tianze Road,116.471479,39.955305,http://maps.google.de/maps?f=q&source=s_q&hl=de&geocode=&q=39.955305 116.471479&z=16&iwloc=A,https://go.sap.corp/nwy
BJG20,"Ruan Lian, 5F",CHINA,BJG,Beijing,100088,Shen Chang Building,116.33609,39.977205,"http://maps.google.de/maps?f=q&source=s_q&hl=de&geocode=&q=39.977205, 116.336090&z=16&iwloc=A",
BJG21,Regus Office for CHC,CHINA,BJG,Beijing,100080,No.2 Dongsan Street,116.306575,39.9790472,http://maps.google.de/maps?f=q&source=s_q&hl=de&geocode=&q=39.9790472 116.306575&z=16&iwloc=A,
CTU02,"E5 TFSP, Middle Tianfu Ave",CHINA,CTU,Chengdu,610041,"Blg 2, 1366 Middle Tianfu Ave",104.068307,30.538056,"http://maps.google.de/maps?f=q&source=s_q&hl=de&geocode=&q=30.538056, 104.068307&z=16&iwloc=A  ",https://go.sap.corp/o3q
CTU03,YaaS Labs,CHINA,CTU,Chengdu,610041,No. 599 South Shiji City Road,104.0714277,30.542719,"http://maps.google.de/maps?f=q&source=s_q&hl=de&geocode=&q=30.542719, 104.0714277&z=16&iwloc=A",
DLN02,International Inform. Service Center,CHINA,DLN,Dalian,116023,"No 269 Wuyi Road, Shahekou dis",121.547033,38.887033,"http://maps.google.de/maps?f=q&source=s_q&hl=de&geocode=&q=38.887033, 121.547033&z=16&iwloc=A",https://portal.wdf.sap.corp/irj/portal?NavigationTarget=navurl://86ee9f3b9c9ff205f8bd1198df96816c
DLN03,17# DLSP,CHINA,DLN,Dalian,116021,#269 Wuyi Road / 17# DLSP,121.548594,38.887094,"http://maps.google.de/maps?f=q&source=s_q&hl=de&geocode=&q=38.887094, 121.548594&z=16&iwloc=A",https://go.sap.corp/dln03
GZU02,K11,CHINA,GZU,Guangzhou,510613,5701 No.6 Zhujiang East Road,113.332952,23.123892,http://maps.google.de/maps?f=q&source=s_q&hl=de&geocode=&q=23.123892 113.332952&z=16&iwloc=A,
HKG02,"Timesquare - Tower Two , 35th Floor",CHINA,HKG,Hong Kong,,1 Matheson Street - Causeway Bay,114.182493,22.278318,http://maps.google.de/maps?f=q&source=s_q&hl=de&geocode=&q=22.278318 114.182493&z=16&iwloc=A,https://go.sap.corp/nwz
HKG20,Lee Garden One,CHINA,HKG,Hong Kong,,33 Hysan Avenue,114.18459,22.280368,http://maps.google.de/maps?f=q&source=s_q&hl=de&geocode=&q=22.280368 114.184592&z=16&iwloc=A,
JNA20,Luneng International Centre,CHINA,JNA,Jinan,250022,No. 2666 2nd Ring South Road,116.984439,36.614036,http://maps.google.de/maps?f=q&source=s_q&hl=de&geocode=&q=36.614036 116.984439&z=16&iwloc=A,
NKG01,Innovation Center,CHINA,NKG,Nanjing,210012,"186, Software Avenue",118.759547,31.975342,"http://maps.google.de/maps?f=q&source=s_q&hl=de&geocode=&q=31.975342, 118.759547&z=16&iwloc=A",https://go.sap.corp/NKG01Nanjing
PVG01,Shanghai Pudong Software Park,CHINA,PVG,Shanghai,201203,1001 Chenhui Road,121.601815,31.201742,"http://maps.google.de/maps?f=q&source=s_q&hl=de&geocode=&q=31.201742, 121.601815&z=16&iwloc=A",https://portal.wdf.sap.corp/irj/portal?NavigationTarget=navurl://f138f84540a906ec62cc5800c0d2dad7
PVG02,Shanghai Pudong Software Park,CHINA,PVG,Shanghai,201203,1001 Chenhui Road,121.601815,31.201742,"http://maps.google.de/maps?f=q&source=s_q&hl=de&geocode=&q=31.201742, 121.601815&z=16&iwloc=A",https://go.sap.corp/PVG02Shanghai
PVG03,Shanghai Pudong Software Park,CHINA,PVG,Shanghai,201203,1001 Chenhui Road,121.601815,31.201742,"http://maps.google.de/maps?f=q&source=s_q&hl=de&geocode=&q=31.201742, 121.601815&z=16&iwloc=A",https://go.sap.corp/PVG03Shanghai
PVG04,Shanghai Pudong Software Park Canteen,CHINA,PVG,Shanghai,201203,1001 Chenhui Road,121.601815,31.201742,"http://maps.google.de/maps?f=q&source=s_q&hl=de&geocode=&q=31.201742, 121.601815&z=16&iwloc=A",https://portal.wdf.sap.corp/irj/portal?NavigationTarget=navurl://7f1b9ee5b298bb3d2ba0beec9c16d55c
PVG05,1000 Chenhui Road - Training Center,CHINA,PVG,Shanghai,201203,1001 Chenhui Road,121.601815,31.201742,"http://maps.google.de/maps?f=q&source=s_q&hl=de&geocode=&q=31.201742, 121.601815&z=16&iwloc=A",https://portal.wdf.sap.corp/irj/portal?NavigationTarget=navurl://be1059afa17c2b97d88c7948443a82a2
PVG06,"Liangxiu, Building W2",CHINA,PVG,Shanghai,201203,1000 Chenhui Road,121.601736,31.20001,"http://maps.google.de/maps?f=q&source=s_q&hl=de&geocode=&q=31.200010, 121.601736&z=16&iwloc=A",https://portal.wdf.sap.corp/irj/portal?NavigationTarget=navurl://a533e5cb3fac1f626523a496e7a51342
PVG07,1000 Chenhui Road -Building 3,CHINA,PVG,Shanghai,201203,1000 Chenhui Road,121.601736,31.20001,"http://maps.google.de/maps?f=q&source=s_q&hl=de&geocode=&q=31.200010, 121.601736&z=16&iwloc=A",https://go.sap.corp/PVG07Shanghai
PVG10,Wheelock Square,CHINA,PVG,Shanghai,200040,1717 Nanjing Road West,121.445137,31.221711,"http://maps.google.de/maps?f=q&source=s_q&hl=de&geocode=&q=31.221711, 121.445137&z=16&iwloc=A",https://portal.wdf.sap.corp/irj/portal?NavigationTarget=navurl://83b9d60f6f8bb6779b6b5e77dd18c773
PVG11,"No. 112, Liangxiu Rd.-Datacentre",CHINA,PVG,Shanghai,201203,"No. 112, Liangxiu Rd.",121.602988,31.198888,http://maps.google.de/maps?f=q&source=s_q&hl=de&geocode=&q=31.198888 121.602988&z=16&iwloc=A,
PVG12,No. 2889 Jin Ke Road (Chamtime),CHINA,PVG,Shanghai,201203,No.2889 Jin Ke Road,121.603094,31.206838,"http://maps.google.de/maps?f=q&source=s_q&hl=de&geocode=&q=31.206838, 121.603094&z=16&iwloc=A",https://go.sap.corp/PVG12
SZX01,"Kerry Plaza, Futian CBD",CHINA,SZX,Shenzhen,518048,1 Zhong Xin Si Road,114.057207,22.535246,http://maps.google.de/maps?f=q&source=s_q&hl=de&geocode=&q=22.535246 114.057207&z=16&iwloc=A,https://go.sap.corp/SZX01Shenzen
WUH01,Yuexiu fortune center,CHINA,WUH,Wuhan,430030,No. 1 ZhongShan Avenue,114.256916,30.575397,http://maps.google.de/maps?f=q&source=s_q&hl=de&geocode=&q=30.575397 114.256916&z=16&iwloc=A,
WUH21,Wuhan Bosswill center,CHINA,WUH,Wuhan,430014,"16/F, No.1268 Jinghan Avenue",114.297686,30.596075,http://maps.google.de/maps?f=q&source=s_q&hl=de&geocode=&q=30.596075 114.297686&z=16&iwloc=A,
XIY02,"Building D, Xi'an Software Park",CHINA,XIY,Xian,710075,"No. 11 JinYeYi Road, Room D 201",108.877963,34.192009,"http://maps.google.de/maps?f=q&source=s_q&hl=de&geocode=&q=34.192009, 108.877963&z=16&iwloc=A",https://go.sap.corp/nx0
XIY20,CaptialMall office,CHINA,XIY,Xian,710065,"No.64 south 2nd Ring Road,",108.9315889,34.23031316,"http://maps.google.de/maps?f=q&source=s_q&hl=de&geocode=&q=34.2303131600, 108.9315888800&z=16&iwloc=A",https://go.sap.corp/XIY20
AMD20,GCP Business Centre,INDIA,AMD,Ahmedabad,380014,"Vijay Cross Road, Memnagar",72.551601,23.044854,http://maps.google.de/maps?f=q&source=s_q&hl=de&geocode=&q=23.044854 72.551601&z=16&iwloc=A,
BLR01,SAP Labs Campus 1,INDIA,BLR,Bangalore,560066,"No. 138, Export Promotion Industri",77.715544,12.979258,"http://maps.google.de/maps?f=q&source=s_q&hl=de&geocode=&q=12.979258, 77.715544&z=16&iwloc=A",https://portal.wdf.sap.corp/irj/portal?NavigationTarget=navurl://3754d565fac32d9ec3f2a2402e4e01c4
BLR02,SAP Labs Reception,INDIA,BLR,Bangalore,560066,"No. 138, Export Promotion Industri",77.714873,12.978796,"http://maps.google.de/maps?f=q&source=s_q&hl=de&geocode=&q=12.978796, 77.714873&z=16&iwloc=A",https://portal.wdf.sap.corp/irj/portal?NavigationTarget=navurl://f26b4990e000f14904a6f5d06e493e99
BLR03,"RMZ 1B, 2B, 2C, 2A",INDIA,BLR,Bangalore,560066,Sonnenahalli Village Mahadevap,77.714148,12.979163,"http://maps.google.de/maps?f=q&source=s_q&hl=de&geocode=&q=12.979163, 77.714148&z=16&iwloc=A",https://portal.wdf.sap.corp/irj/portal?NavigationTarget=navurl://612c66da4e972f6e119d8197099805df
BLR04,SAP Labs Campus 3,INDIA,BLR,Bangalore,560066,"138, Export Promotion Industri",77.715503,12.980046,"http://maps.google.de/maps?f=q&source=s_q&hl=de&geocode=&q=12.980046, 77.715503&z=16&iwloc=A",https://portal.wdf.sap.corp/irj/portal?NavigationTarget=navurl://f035651e824b409c057760340f9206f5
BLR05,Phase 04 (Office Building),INDIA,BLR,Bangalore,560066,"138, Export Promotion Industrial Park",77.715503,12.980046,"http://maps.google.de/maps?f=q&source=s_q&hl=de&geocode=&q=12.980046, 77.715503&z=16&iwloc=A",https://go.sap.corp/BLR05
BLR06,Phase 04 (MLCP),INDIA,BLR,Bangalore,560066,"138, Export Promotion Industrial Park",77.715503,12.980046,"http://maps.google.de/maps?f=q&source=s_q&hl=de&geocode=&q=12.980046, 77.715503&z=16&iwloc=A",https://go.sap.corp/BLR06
BLR08,Child Care Centre,INDIA,BLR,Bangalore,560066,Plot No. 138 - EPIP Industrial Area,77.717408,12.980749,"http://maps.google.de/maps?f=q&source=s_q&hl=de&geocode=&q=12.980749, 77.717408&z=16&iwloc=A",https://portal.wdf.sap.corp/irj/portal?NavigationTarget=navurl://c1847d9f6aaaa4d620f843f26d88bf26
BLR09,SJR park,INDIA,BLR,Bangalore,560066,"Plot 13, 15&15 EPIP area, Whitefield",77.726049,12.981019,"http://maps.google.de/maps?f=q&source=s_q&hl=de&geocode=&q=12.981019, 77.726049&z=16&iwloc=A",https://portal.wdf.sap.corp/irj/portal?NavigationTarget=navurl://ecf1c34c1ea733ffa2b588e9a6dab605
BLR10,RMZ Ecoworld,INDIA,BLR,Bangalore,560103,Outer Ring Road,77.684636,12.919677,"http://maps.google.de/maps?f=q&source=s_q&hl=de&geocode=&q=12.919677, 77.684636&z=16&iwloc=A",https://go.sap.corp/jsh
BLR11,KIADB Land Devanahalli Airport (Land),INDIA,BLR,Bangalore,,of Hitech Defence & Aerospace Park (IT S,77.7125,13.162583,http://maps.google.de/maps?f=q&source=s_q&hl=de&geocode=&q=13.162583 77.712500&z=16&iwloc=A,
BLR25,Salarpuria Softzone,INDIA,BLR,Bangalore,560103,"Sarjapur Outer Ring Road, Vart",77.670098,12.919659,http://maps.google.de/maps?f=q&source=s_q&hl=de&geocode=&q=12.919659 77.670098&z=16&iwloc=A,https://portal.wdf.sap.corp/irj/portal?NavigationTarget=navurl://bea23497065a5e7c693ef1fdbe95473f
BLR85,Bagmane Tech Park (Concur),INDIA,BLR,Bangalore,560093,Bagmane Tech Park,77.66498,12.97819,http://maps.google.de/maps?f=q&source=s_q&hl=de&geocode=&q=12.97819 77.66498&z=16&iwloc=A,
BLR86,Bagmane Laurel (Concur),INDIA,BLR,Bangalore,560093,Bagmane Tech Park,77.66488,12.97819,http://maps.google.de/maps?f=q&source=s_q&hl=de&geocode=&q=12.97819 77.66488&z=16&iwloc=A,
BLR87,Bagmane Lake View (Concur),INDIA,BLR,Bangalore,560093,Ramon Nagar,77.660719,12.978348,http://maps.google.de/maps?f=q&source=s_q&hl=de&geocode=&q=12.978348 77.660719&z=16&iwloc=A,
CHN02,Kimberly Towers,INDIA,CHN,Chennai,600040,"Y222, Second Avenue, Anna Nagar",80.210967,13.084871,http://maps.google.de/maps?f=q&source=s_q&hl=de&geocode=&q=13.084871 80.210967&z=16&iwloc=A,https://portal.wdf.sap.corp/irj/portal?NavigationTarget=navurl://dc854ffff44f060b54a821b86d64ee7c
DED01,"Plot No. 50,  Mohbewala Industrial",INDIA,DED,Dehradun,248001,Saharanpur Road,77.985711,30.269073,"http://maps.google.de/maps?f=q&source=s_q&hl=de&geocode=&q=30.269073, 77.985711&z=16&iwloc=A",https://portal.wdf.sap.corp/irj/portal?NavigationTarget=navurl://ba72a444e4388cc3defd701e2cdb50c1
DEL02,MGF Corporate Park,INDIA,DEL,Delhi,110017,"Plot No A-2, MGF Metropolitan Mall",77.219961,28.529969,http://maps.google.de/maps?f=q&source=s_q&hl=de&geocode=&q=28.529969 77.219961&z=16&iwloc=A,https://portal.wdf.sap.corp/irj/portal?NavigationTarget=navurl://c994a4d19b9722f7b01319a4098a2d3d
GUR01,Vatika Towers,INDIA,GUR,Gurgaon,122002," Sector - 54, Golf Course Sect",77.104987,28.438388,http://maps.google.de/maps?f=q&source=s_q&hl=de&geocode=&q=28.438388 77.104987&z=16&iwloc=A,https://portal.wdf.sap.corp/irj/portal?NavigationTarget=navurl://bd877dc9a58df74ba170dc5306a3fb61
HYD80,"Builidng No 12 B, MindSpace (CallidusCloud)",INDIA,HYD,Hyderabad,500081,Madapur,78.385412,17.437398,http://maps.google.de/maps?f=q&source=s_q&hl=de&geocode=&q=17.437398 78.385412&z=16&iwloc=A,
KOL01,Metro Plaza,INDIA,KOL,Kolkata,700071,Ho-Chi-Minh Sarani,88.348863,22.546927,"http://maps.google.de/maps?f=q&source=s_q&hl=de&geocode=&q=22.546927, 88.348863&z=16&iwloc=A",https://portal.wdf.sap.corp/irj/portal?NavigationTarget=navurl://bda70d6c262c9f626333f6a7fb0f2b06
MUM02,Platinia Building,INDIA,MUM,Mumbai,400051,"C-59, BKS, Bandra East",72.868411,19.068437,http://maps.google.de/maps?f=q&source=s_q&hl=de&geocode=&q=19.068437 72.868411&z=16&iwloc=A,https://portal.wdf.sap.corp/irj/portal?NavigationTarget=navurl://cdf90138982775acc045279f283b5578
MUM50,Platina Bldg. G Block (Sybase),INDIA,MUM,Mumbai,400051,"Plot No.  C-59, Bandra (East)",72.868411,19.068437,http://maps.google.de/maps?f=q&source=s_q&hl=de&geocode=&q=19.068437 72.868411&z=16&iwloc=A,https://go.sap.corp/MUM50Mumbai
PUN50,"Phases I, Cybercity Tower 1 (Sybase)",INDIA,PUN,Pune,411028,"Wing A Level 3, Magarpatta City",73.928461,18.514284,http://maps.google.de/maps?f=q&source=s_q&hl=de&geocode=&q=18.514284 73.928461&z=16&iwloc=A,https://portal.wdf.sap.corp/irj/portal?NavigationTarget=navurl://a11d8321f3227ff6b727052d34488529
JKT02,World Trade Center II,INDONESIA,JKT,Jakarta,12920,Jl. Jend. Sudirman kav. 29-31,106.821467,-6.215453,http://maps.google.de/maps?f=q&source=s_q&hl=de&geocode=&q=-6.215453 106.821467&z=16&iwloc=A,https://go.sap.corp/JKT02
FKS01,Smart Cith AiCT,JAPAN,FKS,Fukushima,965-0872,"1-77, Higashisakaemachi, Wakamatsu-shi",139.930306,37.492139,http://maps.google.de/maps?f=q&source=s_q&hl=de&geocode=&q=37.492139 139.930306&z=16&iwloc=A,
FUK02,ACROSS CUBE Hakataekimae,JAPAN,FUK,Fukuoka,812-0011,"3-4-25 Hakataekimae, Hakata-ku",130.8705555,34.1511111,http://maps.google.de/maps?f=q&source=s_q&hl=de&geocode=&q=34.1511111 130.87055555&z=16&iwloc=A,
NGO01,Sakuradori Toyota Building,JAPAN,NGO,Nagoya,450-0002,"4-5-28 Meieki, Nakamura-ku",136.8867944,35.1712388,http://maps.google.de/maps?f=q&source=s_q&hl=de&geocode=&q=35.171265 136.886687&z=16&iwloc=A,https://portal.wdf.sap.corp/irj/portal?NavigationTarget=navurl://d5b71e5db4068a064f9a5632652eb421
NGO85,4-24-16 Meieki (Concur),JAPAN,NGO,Nagoya,450-0002,4-24-16 Meieki Nakamura-Ku,136.887391,35.168489,http://maps.google.de/maps?f=q&source=s_q&hl=de&geocode=&q=35.168489 136.887391&z=16&iwloc=A,
OIT85,Open Office Oita (Concur),JAPAN,OIT,Oita,870-0021,"4F Oita Kowa Bldg., 3-4-20",133.3180556,33.7841667,http://maps.google.de/maps?f=q&source=s_q&hl=de&geocode=&q=33.7841667 133.3180555555&z=16&iwloc=A,
OSA01,Umeda Daibiru,JAPAN,OSA,Osaka,530-0001,"3-3-10, Umeda Kita-ku, Osaka-city",135.498226,34.698819,http://maps.google.de/maps?f=q&source=s_q&hl=de&geocode=&q=34.698819 135.498226&z=16&iwloc=A,https://portal.wdf.sap.corp/irj/portal?NavigationTarget=navurl://8aa86961dfbeb3a0f109005c671c731e
OSA86,Shin-Daibiru (Concur),JAPAN,OSA,Osaka,530-0004,"1-2-1, Doshimahama, Kita-ku",135.499319,34.69594,http://maps.google.de/maps?f=q&source=s_q&hl=de&geocode=&q=34.695940 135.499319&z=16&iwloc=A,
TYO05,SAP Japan Building,JAPAN,TYO,Tokyo,102-8022,"1-6-4 Kojimachi, Chiyoda-Ku",139.741961,35.684505,http://maps.google.de/maps?f=q&source=s_q&hl=de&geocode=&q=35.684505 139.741961&z=16&iwloc=A,https://portal.wdf.sap.corp/irj/portal?NavigationTarget=navurl://c2b59fea065cfdcfc80cd40b50702b80
TYO06,Otemachi Building,JAPAN,TYO,Tokyo,100-0004,1-6-1 Otemachi Chiyoda-ku,139.765459,35.687183,http://maps.google.de/maps?f=q&source=s_q&hl=de&geocode=&q=35.687183 139.765459&z=16&iwloc=A,
TYO45,1 Chome Marunouchi Chiyoda (Qualtrics),JAPAN,TYO,Tokyo,100-8086,1 Chome Marunouchi Chiyoda,139.766878,35.684285,http://maps.google.de/maps?f=q&source=s_q&hl=de&geocode=&q=35.684285 139.766878&z=16&iwloc=A,
TYO86,GINZA 6 (Concur),JAPAN,TYO,Tokyo,104-0061,"6-10-1 Ginza, Chuo-ku",139.7641258,35.6694726,http://maps.google.de/maps?f=q&source=s_q&hl=de&geocode=&q=35.6694726 139.7641258&z=16&iwloc=A,
SEL01,MMAA Building,KOREA,SEL,Seoul,6292,"2806, Nambusunhwan-ro, Gangnam-gu",127.052947,37.48906,"http://maps.google.de/maps?f=q&source=s_q&hl=de&geocode=&q=37.489060, 127.052947&z=16&iwloc=A",https://portal.wdf.sap.corp/irj/portal?NavigationTarget=navurl://1ae268a2cd16cca6ea400150705301d7
SEL03,R&D Center,KOREA,SEL,Seoul,6578,"235 Banpo daero, Seocho-gu",127.003337,37.500755,http://maps.google.de/maps?f=q&source=s_q&hl=de&geocode=&q=37.500755 127.003337&z=16&iwloc=A,https://portal.wdf.sap.corp/irj/portal?NavigationTarget=navurl://2f7fe09f54cd4ee322d094a77d129550
SEL04,AppHaus,KOREA,SEL,Seoul,13488,"5F, 3dong, 289gil Pangyo-ro, Bundang-gu",127.101639,37.406778,http://maps.google.de/maps?f=q&source=s_q&hl=de&geocode=&q=37.406778 127.101639&z=16&iwloc=A,https://go.sap.corp/owv
KUL03,GTower,MALAYSIA,KUL,Kuala Lumpur,50400,199 Jalan Tun Razak,101.719757,3.15898,http://maps.google.de/maps?f=q&source=s_q&hl=de&geocode=&q=3.158980 101.719757&z=16&iwloc=A,https://portal.wdf.sap.corp/irj/portal?NavigationTarget=navurl://5b41ff890a7dccfa6078ea79d8142456
RGN20,Myanmar Center Business Suites,MYANMAR,RGN,Yangon,11201,"Office Suite 1107, No 192 Kaba Aye Pagod",96.154057,16.825238,http://maps.google.de/maps?f=q&source=s_q&hl=de&geocode=&q=16.825238 96.154057&z=16&iwloc=A,https://go.sap.corp/RGN20
AKL02,151 Queen Street,NEW ZEALAND,AKL,Auckland,1010,151 Queen Street,174.765626,-36.847045,http://maps.google.de/maps?f=q&source=s_q&hl=de&geocode=&q=-36.847045 174.765626&z=16&iwloc=A,https://portal.wdf.sap.corp/irj/portal?NavigationTarget=navurl://6c2c6087203fe473945b3adf8eb4e125
WLG03,1 Willis Street,NEW ZEALAND,WLG,Wellington,6011,"1 Willis Street, Level 18",174.776441,-41.286917,http://maps.google.de/maps?f=q&source=s_q&hl=de&geocode=&q=-41.286917 174.776441&z=16&iwloc=A,https://go.sap.corp/WLG03
MNL02,NAC Tower,PHILIPPINES,MNL,Manila,1632,"32nd Street, Level 27",121.051459,14.552957,http://maps.google.de/maps?f=q&source=s_q&hl=de&geocode=&q=14.552957 121.051459&z=16&iwloc=A,https://go.sap.corp/nx1
MNL03,Robinsons Cyberscape Beta,PHILIPPINES,MNL,Manila,1600,Topaz Road & Ruby Road,121.060756,14.587874,http://maps.google.de/maps?f=q&source=s_q&hl=de&geocode=&q=14.587874 121.060756&z=16&iwloc=A,https://go.sap.corp/nx2
MNL04,Cyberscape Gamma,PHILIPPINES,MNL,Manila,1605,Topaz and Ruby Roads,121.060659,14.587563,http://maps.google.de/maps?f=q&source=s_q&hl=de&geocode=&q=14.587563 121.060659,https://go.sap.corp/MNL04
MNL85,Alphaland Southgate Tower (Concur),PHILIPPINES,MNL,Manila,1231,Alphaland Southgate Tower,121.0195,14.54124,http://maps.google.de/maps?f=q&source=s_q&hl=de&geocode=&q=14.54124 121.01950&z=16&iwloc=A,https://go.sap.corp/MNL85
SIN05,Mapletree Business City,SINGAPORE,SIN,Singapore,117440,30 Pasir Panjang Road # 03-32,103.79792,1.275041,http://maps.google.de/maps?f=q&source=s_q&hl=de&geocode=&q=1.275041 103.797920&z=16&iwloc=A,https://portal.wdf.sap.corp/irj/portal?NavigationTarget=navurl://12cde4b7c4d51d77a2219f02f20d4b8d
SIN45,"Regus, Asia Square Tower 1 (Qualtrics)",SINGAPORE,SIN,Singapore,18960,8 Marina View No. 07-04,103.851324,1.279179,http://maps.google.de/maps?f=q&source=s_q&hl=de&geocode=&q=1.279179 103.851324&z=16&iwloc=A,
SIN50,Eng.Alexandra Technopark (Sybase),SINGAPORE,SIN,Singapore,119968,438 B Alexandra Road,103.799473,1.277472,http://maps.google.de/maps?f=q&source=s_q&hl=de&geocode=&q=1.277472 103.799473&z=16&iwloc=A,https://portal.wdf.sap.corp/irj/portal?NavigationTarget=navurl://e6c75f65e80f1434f4eff865382b70fc
TPE02,Hua Nan HQ Trade Building,TAIWAN,TPE,Taipei,11073,"No. 123, Songren Rd, Xinyi Distr.",121.569189,25.034424,http://maps.google.de/maps?f=q&source=s_q&hl=de&geocode=&q=25.034424 121.569189&z=16&iwloc=A,https://go.sap.corp/nx3
BKK01,Liberty Square Building,THAILAND,BKK,Bangkok,10500,"287 Silom Road, Liberty Square",100.533027,13.72772,http://maps.google.de/maps?f=q&source=s_q&hl=de&geocode=&q=13.72772 100.533027&z=16&iwloc=A,https://portal.wdf.sap.corp/irj/portal?NavigationTarget=navurl://52bc3db1b667d99d63126fcc6a8eb219
HAO02,Capital Tower,VIETNAM,HAO,Hanoi,10000,109 Tran Hung Dao Str.,105.842007,21.023511,http://maps.google.de/maps?f=q&source=s_q&hl=de&geocode=&q=21.023511 105.842007&z=16&iwloc=A,https://portal.wdf.sap.corp/irj/portal?NavigationTarget=navurl://8ed72b542ab1b27f7a0bc6620f17a6ae
HAO20,Spaces Belvedere,VIETNAM,HAO,Hanoi,100000,28A Tran Hung Dao Street,105.85516,21.02019,http://maps.google.de/maps?f=q&source=s_q&hl=de&geocode=&q=21.020190 105.855160&z=16&iwloc=A,
SGN04,Viettel Tower,VIETNAM,SGN,Ho Chi Minh City,70000,285 Cach Mang Thang Tam Street,106.680143,10.778459,http://maps.google.de/maps?f=q&source=s_q&hl=de&geocode=&q=10.778459 106.680143&z=16&iwloc=A,https://go.sap.corp/u1w
SGN20,Vietcombank Tower,VIETNAM,SGN,Ho Chi Minh City,,No 5 Me Linh Square,106.705578,10.775984,http://maps.google.de/maps?f=q&source=s_q&hl=de&geocode=&q=10.775984 106.705578&z=16&iwloc=A,
BUE04,Panamerica Olivos District,ARGENTINA,BUE,Buenos Aires,B1605DII,"Munro, Sargento Cabral St. 3770",-58.525522,-34.515592,http://maps.google.de/maps?f=q&source=s_q&hl=de&geocode=&q=-34.515592 -58.525522&z=16&iwloc=A,https://portal.wdf.sap.corp/irj/portal?NavigationTarget=navurl://4075ce25294fe7495cb46b845cb41595
BUE05,Laminar,ARGENTINA,BUE,Buenos Aires,C1001AFB,El piso Veinte 20 del edificio,-58.3707423,-34.59679,http://maps.google.de/maps?f=q&source=s_q&hl=de&geocode=&q=-34.5967953 -58.3707423&z=16&iwloc=A,https://go.sap.corp/BUE05
BUE06,Panamerican Building,ARGENTINA,BUE,Buenos Aires,B1605DII,"Sargento Cabral St. 3770, Munro",-58.52557,-34.515104,http://maps.google.de/maps?f=q&source=s_q&hl=de&geocode=&q=-34.515104 -58.525570&z=16&iwloc=A,
BSB01,Edificio Cento Empresarial Varig,BRAZIL,BSB,Brasilia,70714-900,"SCN, Quadra 04, Bloco B, numero 100",-47.887175,-15.786525,"http://maps.google.de/maps?f=q&source=s_q&hl=de&geocode=&q=-15.786525, -47.887175&z=16&iwloc=A",
RIO01,Av. Rio Branco n 138 - 8 andar,BRAZIL,RIO,Rio de Janeiro,20040-002,Av. Rio Branco n 138 - 8 andar,-43.177655,-22.90571,http://maps.google.de/maps?f=q&source=s_q&hl=de&geocode=&q=-22.905710 -43.177655&z=16&iwloc=A,https://portal.wdf.sap.corp/irj/portal?NavigationTarget=navurl://f85cbd8df4738bb1adb4913f413c9e89
RIO70,Rua Candelária (Ariba),BRAZIL,RIO,Rio de Janeiro,20091-906,Rua Candelária 65-15°andar-Centro,-43.177849,-22.899742,"https://www.google.com.br/maps/place/R.+Candel%C3%A1ria,+65+-+Centro,+Rio+de+Janeiro+-+RJ,+20091-020/@-22.899742,-43.177",https://go.sap.corp/RIO70
SAO02,Marble Tower,BRAZIL,SAO,Sao Paulo,04794-000,Av das Nacoes Unidas 14171,-46.700376,-23.622742,http://maps.google.de/maps?f=q&source=s_q&hl=de&geocode=&q=-23.622742 -46.700376&z=16&iwloc=A,https://portal.wdf.sap.corp/irj/portal?NavigationTarget=navurl://f0e2e21b5ca6a7c45fe716967905d930
SLE01,SAP Labs Latin America Building 1,BRAZIL,SLE,Sao Leopoldo,93022-718,Avenida SAP 188,-51.148405,-29.796534,http://maps.google.de/maps?f=q&source=s_q&hl=de&geocode=&q=-29.796534 -51.148405&z=16&iwloc=A,https://portal.wdf.sap.corp/irj/portal?NavigationTarget=navurl://afa48e6c9d6097a6455e85b295d6ad0e
SLE02,SAP Labs Latin America Building 2,BRAZIL,SLE,Sao Leopoldo,93020-080,3101 Av. Teodomiro Porto da Fonseca,-51.14919,-29.7954,http://maps.google.de/maps?f=q&source=s_q&hl=de&geocode=&q=-29.79540 -51.14919&z=16&iwloc=A,
SLE20,SAP Labs Latin America Building 3,BRAZIL,SLE,Sao Leopoldo,93020-080,3101 Av Theodomiro Porto da Fonseca,-51.149331,-29.795104,http://maps.google.de/maps?f=q&source=s_q&hl=de&geocode=&q=-29.795104 -51.149331&z=16&iwloc=A,
CAL03,Millennium Tower,CANADA,CAL,Calgary,T2P5E9,"440 2nd Avenue SW, Suite No. 510",-114.0710827,51.0520649,http://maps.google.de/maps?f=q&source=s_q&hl=de&geocode=&q=51.0520649 -114.0710827&z=16&iwloc=A,https://go.sap.corp/CAL03
MON02,111 rue Duke St (former Robert-Bourassa Boulevard),CANADA,MON,Montreal,H3C 2M1,111 Robert-Bourassa Boulevard,-73.556336,45.496778,http://maps.google.de/maps?f=q&source=s_q&hl=de&geocode=&q=45.496778 -73.556336&z=16&iwloc=A,https://portal.wdf.sap.corp/irj/portal?NavigationTarget=navurl://82e05d5839c48f6a546ac68f54bc5c9d
MON75,999 de Maisonneuve Blvd. (Hybris),CANADA,MON,Montreal,H3A3L4,999 de Maisonneuve Blvd. West,-73.574231,45.501961,http://maps.google.de/maps?f=q&source=s_q&hl=de&geocode=&q=45.501961 -73.574231&z=16&iwloc=A,https://go.sap.corp/Montreal75
OTT02,360 Albert Street,CANADA,OTT,Ottawa,K1R7X7,360 Albert Street,-75.703812,45.418012,http://maps.google.de/maps?f=q&source=s_q&hl=de&geocode=&q=45.418012 -75.703812&z=16&iwloc=A,https://portal.wdf.sap.corp/irj/portal?NavigationTarget=navurl://5628c9029b16d1abe8c6ae02b1574f25
TOR05,222 Bay Street,CANADA,TOR,Toronto,M5K 1B7,"222 Bay Street, P.O. Box 41",-79.3802294,43.6476643,http://maps.google.de/maps?f=q&source=s_q&hl=de&geocode=&q=43.6476643 -79.3802294&z=16&iwloc=A,https://go.sap.corp/TOR05
VAN03,910 Mainland Street,CANADA,VAN,Vancouver,V6B 1A9,910 Mainland Street,-123.117691,49.276935,http://maps.google.de/maps?f=q&source=s_q&hl=de&geocode=&q=49.276935 -123.117691&z=16&iwloc=A,https://portal.wdf.sap.corp/irj/portal?NavigationTarget=navurl://19fb665b22aa14c907ed25995fdb6a9c
WTO01,445 Wes Graham Way (Sybase),CANADA,WTO,Waterloo,N2L6R2,445 Wes Graham Way,-80.550943,43.480208,http://maps.google.de/maps?f=q&source=s_q&hl=de&geocode=&q=43.480208 -80.550943&z=16&iwloc=A,https://go.sap.corp/nwb
SCL03,Nueva Apoquindo,CHILE,SCL,Santiago,7560968,4777 Los Militares Av.,-70.579995,-33.411334,http://maps.google.de/maps?f=q&source=s_q&hl=de&geocode=&q=-33.411334 -70.579995&z=16&iwloc=A,https://go.sap.corp/SCL03
SCL71,Rosario Norte (Ariba),CHILE,SCL,Santiago,7550000,Rosario Norte 100,-70.5718112,-33.4076367,http://maps.google.de/maps?f=q&source=s_q&hl=de&geocode=&q=-33.4076367 -70.5718112&z=16&iwloc=A,
BOG03,Tierra Firme,COLOMBIA,BOG,Bogota,110-111,Avenida Carrera 9 No. 115-06 y,-74.03455,4.693179,http://maps.google.de/maps?f=q&source=s_q&hl=de&geocode=&q=4.693179 -74.034550&z=16&iwloc=A,https://go.sap.corp/BOG03
MDE02,Edificio Buró 4.0,COLOMBIA,MDE,Medellin,50022,Carrera 43B # 1A Sur -70,-75.5730381,6.2015977,http://maps.google.de/maps?f=q&source=s_q&hl=de&geocode=&q=6.2015977 -75.5730381&z=16&iwloc=A,https://go.sap.corp/yo8
SJO02,Plaza Tempo,COSTA RICA,SJO,San Jose,,Costado Oeste del Hospital CIMA,-84.14525991,9.940271945,http://maps.google.de/maps?f=q&source=s_q&hl=de&geocode=&q=9.940271945 -84.145259907&z=16&iwloc=A,https://go.sap.corp/m7q
SDQ20,Thrive Office,DOMINICAN REPUBLIC,SDQ,Santo Domingo,,95 Winston Churchill Avenue,-69.941118,18.472499,,
UIO20,Ziza Building,ECUADOR,UIO,Quito,170135,Av. 6 de Diciembre y Av,-78.479231,-0.186475,http://maps.google.de/maps?f=q&source=s_q&hl=de&geocode=&q=-0.186475 -78.479231&z=16&iwloc=A,
GUA20,Edificio Corporativo Platina,GUATEMALA,GUA,Guatemala City,,5 Avenida 16-62 zona 10,-90.512915,14.594676,http://maps.google.de/maps?f=q&source=s_q&hl=de&geocode=&q=14.594676 -90.512915&z=16&iwloc=A,
TGU20,Honduras Business Center,HONDURAS,TGU,Tegucigalpa,11101,Blvrd  Francisco Morazán,-87.187019,14.10186,http://maps.google.de/maps?f=q&source=s_q&hl=de&geocode=&q=14.101860 -87.187019&z=16&iwloc=A,
MEX01,Prol Paseo de la Reforma No# 600,MEXICO,MEX,Mexico City,1210,Prol Paseo de la Reforma No 600,-99.257345,19.375869,http://maps.google.de/maps?f=q&source=s_q&hl=de&geocode=&q=19.375869 -99.257345&z=16&iwloc=A,https://portal.wdf.sap.corp/irj/portal?NavigationTarget=navurl://f47d71382cd493296e2d34eb3178652c
MTY03,Parque Corporativo Equus,MEXICO,MTY,Monterrey,66265,Ave. Ricardo Margain 444 sur,-100.353836,25.646809,http://maps.google.de/maps?f=q&source=s_q&hl=de&geocode=&q=25.646809 -100.353836&z=16&iwloc=A,https://portal.wdf.sap.corp/irj/portal?NavigationTarget=navurl://aec67fe532a9c3dbf3fcd722fdd5ad77
MTY21,IZA Alestra,MEXICO,MTY,Monterrey,66260,Ave. Lazaro Cardenas # 2321 Pte.,-100.3347183,25.65178333,http://maps.google.de/maps?f=q&source=s_q&hl=de&geocode=&q=25.65178333 -100.33471833&z=16&iwloc=A,
PTY21,Regus Panama,PANAMA,PTY,Panama City,,Boulevard Costa del Este,-79.476717,9.01526,http://maps.google.de/maps?f=q&source=s_q&hl=de&geocode=&q=9.01526 -79.476717&z=16&iwloc=A,
LIM02,Capital Golf - Santiago de Surco,PERU,LIM,Lima,33,Av Circunvalacion Club Golf Los Incas No,-76.968081,-12.082559,http://maps.google.de/maps?f=q&source=s_q&hl=de&geocode=&q=-12.082559 -76.968081&z=16&iwloc=A,https://go.sap.corp/LIM02
LIM70,San Isidro District (Ariba),PERU,LIM,Lima,27,Ave. Pardo y Aliaga 699 Piso 4,-77.039107,-12.106585,"https://www.google.de/maps/place/Av.+Pardo+y+Aliaga+699,+San+Isidro+Lima+27,+Peru/@-12.1065963,-77.0394892,19.51z/data=!",https://go.sap.corp/nwe
PRI01,Citi View Plaza,PUERTO RICO,PRI,San Juan,968,48 Road 165 Guaynabo,-66.109178,18.417038,http://maps.google.de/maps?f=q&source=s_q&hl=de&geocode=&q=18.417038 -66.109178&z=16&iwloc=A,https://portal.wdf.sap.corp/irj/portal?NavigationTarget=navurl://475a4211eafdf9d41581c2f25f7fd8b9
APH71,8000 Avalon Boulevard (Ariba),UNITED STATES,APH,Alpharetta,30009,8000 Avalon Boulevard,"-842,764,762","340,707,949",http://maps.google.de/maps?f=q&source=s_q&hl=de&geocode=&q=34.0707949 -84.2764762&z=16&iwloc=A,https://go.sap.corp/APH71
ATL02,One Alliance Center,UNITED STATES,ATL,Atlanta,30326,3500 Lenox Road,-84.366297,33.852063,http://maps.google.de/maps?f=q&source=s_q&hl=de&geocode=&q=33.852063 -84.366297&z=16&iwloc=A,https://go.sap.corp/ATL02
ATL80,41 Perimeter Center East (CallidusCloud),UNITED STATES,ATL,Atlanta,30346,41 Perimeter Center East,-84.331143,33.924451,http://maps.google.de/maps?f=q&source=s_q&hl=de&geocode=&q=33.924451 -84.331143&z=16&iwloc=A,
AUS03,100 Congress - Suite 2000,UNITED STATES,AUS,Austin,78701,100 Congress - Suite 2000,-97.744738,30.26398,http://maps.google.de/maps?f=q&source=s_q&hl=de&geocode=&q=30.26398 -97.744738&z=16&iwloc=A,
BEL85,601 108th Ave NE (Concur),UNITED STATES,BEL,Bellevue,98004,"601 108th Avenue, N.E.",-122.19687,47.616,http://maps.google.de/maps?f=q&source=s_q&hl=de&geocode=&q=47.61600 -122.19687&z=16&iwloc=A,https://go.sap.corp/pkv
BHM81,One Perimeter Park Sout (CallidusCloud),UNITED STATES,BHM,Birmingham,35243,One Perimeter Park South,-86.72388,33.437573,http://maps.google.de/maps?f=q&source=s_q&hl=de&geocode=&q=33.437573 -86.723880&z=16&iwloc=A,https://go.sap.corp/BHM81
BNT01,609 SW 8th Street,UNITED STATES,BNT,Bentonville,72712,609 SW 8th Street,-94.215958,36.362967,http://maps.google.de/maps?f=q&source=s_q&hl=de&geocode=&q=36.362967 -94.215958&z=16&iwloc=A,https://go.sap.corp/nwh
BOF75,Boulder (Hybris),UNITED STATES,BOF,Boulder,80301,3005 Center Green Dr. Boulder,-105.247387,40.02961,http://maps.google.de/maps?f=q&source=s_q&hl=de&geocode=&q=40.029610 -105.247387&z=16&iwloc=A,https://go.sap.corp/nwj
BOI80,2950 Magic View Dr. (CallidusCloud),UNITED STATES,BOI,Boise,83642,2950 Magic View Dr.,-116.358342,43.600332,http://maps.google.de/maps?f=q&source=s_q&hl=de&geocode=&q=43.600332 -116.358342&z=16&iwloc=A,https://go.sap.corp/BOI80
BOS04,53 State Street,UNITED STATES,BOS,Boston,2109,53 State Street,-71.056178,42.358439,http://maps.google.de/maps?f=q&source=s_q&hl=de&geocode=&q=42.358439 -71.056178&z=16&iwloc=A,https://go.sap.corp/BOS04
BOS45, 77  Sleeper St. (Qualtrics),UNITED STATES,BOS,Boston,2210,77 Sleeper St.,-71.047319,42.353367,http://maps.google.de/maps?f=q&source=s_q&hl=de&geocode=&q=42.353367 -71.047319&z=16&iwloc=A,
BOS46,275 Grove Street (Qualtrics),UNITED STATES,BOS,Boston,2466,275 Grove Street,-71.25245,42.338873,http://maps.google.de/maps?f=q&source=s_q&hl=de&geocode=&q=42.338873 -71.25245&z=16&iwloc=A,
BOS50,Burlington Office Park II (Sybase),UNITED STATES,BOS,Boston,1803,15 Wayside Road,-71.191726,42.484336,http://maps.google.de/maps?f=q&source=s_q&hl=de&geocode=&q=42.484336 -71.191726&z=16&iwloc=A,https://go.sap.corp/nwi
CHI03,Downers Grove,UNITED STATES,CHI,Chicago,60515,3010 Highland Parkway,-88.008562,41.831887,http://maps.google.de/maps?f=q&source=s_q&hl=de&geocode=&q=41.831887 -88.008562&z=16&iwloc=A,https://portal.wdf.sap.corp/irj/portal?NavigationTarget=navurl://e6d8e0ad719d4b86c7ffaab14c51fa03
CHI65,"200 East 5th Ave, (Fieldglass)",UNITED STATES,CHI,Chicago,60563,200 East 5th Ave.,-88.143288,41.780395,http://maps.google.de/maps?f=q&source=s_q&hl=de&geocode=&q=41.780395 -88.143288&z=16&iwloc=A,https://go.sap.corp/CHI65Fieldglas
CHI66,111 North Canal Street (Fieldglass),UNITED STATES,CHI,Chicago,60606,111 North Canal Street,-87.63931,41.883788,http://maps.google.de/maps?f=q&source=s_q&hl=de&geocode=&q=41.883788 -87.639310&z=16&iwloc=A,https://go.sap.corp/CHI66-Fieldglas
CIN01,1600 Scripps Center,UNITED STATES,CIN,Cincinnati,45202,312 Walnut Street,-84.510366,39.099296,http://maps.google.de/maps?f=q&source=s_q&hl=de&geocode=&q=39.099296 -84.510366&z=16&iwloc=A,https://portal.wdf.sap.corp/irj/portal?NavigationTarget=navurl://449f64c81c6b52bc4e098522533ccee6
CLD21,Cardiff-by-the Sea (Roambi),UNITED STATES,CLD,Carlsbad,92007,131 Aberdeen Dr.,-117.2812029,33.0203301,http://maps.google.de/maps?f=q&source=s_q&hl=de&geocode=&q=33.0203301 -117.2812029&z=16&iwloc=A,https://go.sap.corp/CLD21
COS01,3233 Janitell Road,UNITED STATES,COS,Colorado Springs,80906,3233 Janitell Road,-104.786923,38.783655,http://maps.google.de/maps?f=q&source=s_q&hl=de&geocode=&q=38.783655 -104.786923&z=16&iwloc=A,
COS02,2345 Windswept View,UNITED STATES,COS,Colorado Springs,80921,2345 Windswept View,-104.7872222,38.9883333,http://maps.google.de/maps?f=q&source=s_q&hl=de&geocode=&q=38.9883333 -104.787222222&z=16&iwloc=A,
DAL02,Legacy West,UNITED STATES,DAL,Dallas,75024,"7500 Windrose Avenue, Suite 250",-96.82609,33.080046,http://maps.google.de/maps?f=q&source=s_q&hl=de&geocode=&q=33.080046 -96.82609&z=16&iwloc=A,https://go.sap.corp/DAL02
DAL45,5830  Granite Parkway  (Qualtrics),UNITED STATES,DAL,Dallas,75024,5830  Granite Parkway,-96.821118,33.087593,http://maps.google.de/maps?f=q&source=s_q&hl=de&geocode=&q=33.087593 -96.821118&z=16&iwloc=A,
DAL46,The Tennyson South Building (Qualtrics),UNITED STATES,DAL,Dallas,75024,6105 Tennyson Parkway-South Building,-96.829964,33.07291,http://maps.google.de/maps?f=q&source=s_q&hl=de&geocode=&q=33.072910 -96.829964&z=16&iwloc=A,
DAL85,Allen (Concur),UNITED STATES,DAL,Dallas,75013,700 Central Expressway South,-96.68177,33.09368,http://maps.google.de/maps?f=q&source=s_q&hl=de&geocode=&q=33.09368 -96.68177&z=16&iwloc=A,https://go.sap.corp/dal85
DEN45,3001 Brighton Blvd (Qualtrics),UNITED STATES,DEN,Denver,80216,3001 Brighton Blvd,-104.986096,39.765616,http://maps.google.de/maps?f=q&source=s_q&hl=de&geocode=&q=39.765616 -104.986096&z=16&iwloc=A,
DUN80,4140 Dublin Blvd. (CallidusCloud),UNITED STATES,DUN,"Dublin, US",94568,4140 Dublin Blvd.,-121.87449,37.703049,http://maps.google.de/maps?f=q&source=s_q&hl=de&geocode=&q=37.703049 -121.87449&z=16&iwloc=A,
HOU03,Westheimer Road,UNITED STATES,HOU,Houston,77098,2601 Westheimer Road,-95.419418,29.741928,http://maps.google.de/maps?f=q&source=s_q&hl=de&geocode=&q=29.741928 -95.419418&z=16&iwloc=A,https://go.sap.corp/HOU03-1
IAD01,2000 Edmund Halley Drive,UNITED STATES,IAD,Reston,20191,2000 Edmund Halley Drive,-77.362805,38.951991,http://maps.google.de/maps?f=q&source=s_q&hl=de&geocode=&q=38.951991 -77.362805&z=16&iwloc=A,https://go.sap.corp/mtu
LSE04,Riverside Center II,UNITED STATES,LSE,La Crosse,54601,332 S. Front Street,-91.257267,43.810655,http://maps.google.de/maps?f=q&source=s_q&hl=de&geocode=&q=43.810655 -91.257267&z=16&iwloc=A,https://portal.wdf.sap.corp/irj/portal?NavigationTarget=navurl://10a614518d85b96c8f96f999eea106f6
MCO01,400 International Parkway,UNITED STATES,MCO,Lake Mary,32746,400 International Parkway,-81.362573,28.765399,http://maps.google.de/maps?f=q&source=s_q&hl=de&geocode=&q=28.765399 -81.362573&z=16&iwloc=A,https://portal.wdf.sap.corp/irj/portal?NavigationTarget=navurl://bf9925926656159ccd91ceb76e3c435e
MIA01,5301 Waterford at Blue Lagoon,UNITED STATES,MIA,Miami,33126,5301 Waterford at Blue Lagoon,-80.282164,25.782445,http://maps.google.de/maps?f=q&source=s_q&hl=de&geocode=&q=25.782445 -80.282164&z=16&iwloc=A,https://portal.wdf.sap.corp/irj/portal?NavigationTarget=navurl://6f126ffdb53ae35bc711ed4ef7a507e3
MIA02,801 Brickell Avenue (CoreSystems),UNITED STATES,MIA,Miami,33131,"801 Brickell Avenue, Suite 1400",-80.19038,25.7657,http://maps.google.de/maps?f=q&source=s_q&hl=de&geocode=&q=25.7657 -80.19038&z=16&iwloc=A,
MIN85,1550 Utica Avenue South (Concur),UNITED STATES,MIN,Minneapolis,55416,1550 Utica Avenue South,-93.345684,44.967114,http://maps.google.de/maps?f=q&source=s_q&hl=de&geocode=&q=44.967114 -93.345684&z=16&iwloc=A,https://go.sap.corp/pk7
MIN86,10700 Prairie Lakes Drive (Concur),UNITED STATES,MIN,Minneapolis,55344,10700 Prairie Lakes Drive,-93.41226,44.85153,http://maps.google.de/maps?f=q&source=s_q&hl=de&geocode=&q=44.85153 -93.41226&z=16&iwloc=A,https://go.sap.corp/pky
NPB01,The Waterfront,UNITED STATES,NPB,Newport Beach,92663,3366 Via Lido,-117.927692,33.6177457,http://maps.google.de/maps?f=q&source=s_q&hl=de&geocode=&q=33.6177457 -117.927692&z=,https://go.sap.corp/NPB01
NPB02,Offices at Lido Village,UNITED STATES,NPB,Newport Beach,92663,3700 Newport Boulevard,-117.929527,33.619753,http://maps.google.de/maps?f=q&source=s_q&hl=de&geocode=&q=33.619753 -117.929527&z=,
NSQ01,SAP Americas HQ Building,UNITED STATES,NSQ,Newtown Square,19073,3999 West Chester Pike,-75.415843,39.987566,http://maps.google.de/maps?f=q&source=s_q&hl=de&geocode=&q=39.987566 -75.415843&z=16&iwloc=A,https://portal.wdf.sap.corp/irj/portal?NavigationTarget=navurl://867919ad2777232b5af9556d02c795c5
NSQ02,3999 West Chester Pike,UNITED STATES,NSQ,Newtown Square,19073,3999 West Chester Pike,-75.416029,39.988344,http://maps.google.de/maps?f=q&source=s_q&hl=de&geocode=&q=39.988344 -75.416029&z=16&iwloc=A,https://portal.wdf.sap.corp/irj/portal?NavigationTarget=navurl://d239312785f77b255cdcb21188b2067a
NSQ04,SAP Cottages,UNITED STATES,NSQ,Newtown Square,19073,3801 West Chester Pike,-75.408329,39.989307,http://maps.google.de/maps?f=q&source=s_q&hl=de&geocode=&q=39.989307 -75.408329&z=16&iwloc=A,https://go.sap.corp/NSQ04
NYC02,10 Hudson Yards,UNITED STATES,NYC,New York,10001,10 Hudson Yards,-74.00102,40.752712,http://maps.google.de/maps?f=q&source=s_q&hl=de&geocode=&q=40.752712 -74.001020&z=16&iwloc=A,https://go.sap.corp/p4x
PAL01,Bldg 1,UNITED STATES,PAL,Palo Alto,94304,3410 Hillview Ave,-122.146519,37.398834,http://maps.google.de/maps?f=q&source=s_q&hl=de&geocode=&q=37.398834 -122.146519&z=16&iwloc=A,https://portal.wdf.sap.corp/irj/portal?NavigationTarget=navurl://96c2baa8a8a59b236218a7c29e966f25
PAL02,Bldg 2,UNITED STATES,PAL,Palo Alto,94304,3412 Hillview Ave,-122.145078,37.398064,http://maps.google.de/maps?f=q&source=s_q&hl=de&geocode=&q=37.398064 -122.145078&z=16&iwloc=A,https://portal.wdf.sap.corp/irj/portal?NavigationTarget=navurl://87cdc0a284f39cdde2b99ab8f1dc10be
PAL03,Bldg 3,UNITED STATES,PAL,Palo Alto,94304,3420 Hillview Avenue,-122.144867,37.397073,http://maps.google.de/maps?f=q&source=s_q&hl=de&geocode=&q=37.397073 -122.144867&z=16&iwloc=A,https://portal.wdf.sap.corp/irj/portal?NavigationTarget=navurl://e5d82b7fd7ea738a2786cf1af1b9b1cf
PAL04,Bldg 4,UNITED STATES,PAL,Palo Alto,94304,3450 Hillview Avenue,-122.144699,37.395641,http://maps.google.de/maps?f=q&source=s_q&hl=de&geocode=&q=37.395641 -122.144699&z=16&iwloc=A,https://go.sap.corp/nwq
PAL05,Bldg 5,UNITED STATES,PAL,Palo Alto,94304,3408 Hillview Ave.,-122.145851,37.399898,http://maps.google.de/maps?f=q&source=s_q&hl=de&geocode=&q=37.399898 -122.145851&z=16&iwloc=A,https://portal.wdf.sap.corp/irj/portal?NavigationTarget=navurl://155e3b142a0143597e5b60d4c8e56037
PAL07,Bldg 7,UNITED STATES,PAL,Palo Alto,94304,3475 Deer Creek Road,-122.148748,37.39562,http://maps.google.de/maps?f=q&source=s_q&hl=de&geocode=&q=37.395620 -122.148748&z=16&iwloc=A,https://portal.wdf.sap.corp/irj/portal?NavigationTarget=navurl://be63573a09ccd1cdbc931d4430037860
PAL08,Bldg 8,UNITED STATES,PAL,Palo Alto,94304,3475 Deer Creek Road,-122.148018,37.39564,http://maps.google.de/maps?f=q&source=s_q&hl=de&geocode=&q=37.395640 -122.148018&z=16&iwloc=A,https://portal.wdf.sap.corp/irj/portal?NavigationTarget=navurl://7cc0b9a27e9ee969085f20a2495a3517
PAL09,Bldg 9,UNITED STATES,PAL,Palo Alto,94304,3475 Deer Creek Road,-122.147737,37.395466,http://maps.google.de/maps?f=q&source=s_q&hl=de&geocode=&q=37.395466 -122.147737&z=16&iwloc=A,https://portal.wdf.sap.corp/irj/portal?NavigationTarget=navurl://f2ec7ffe5947d99bc322a4b739f5fed0
PAL21,"Palo Alto ""Cafe Hana-Haus""",UNITED STATES,PAL,Palo Alto,94301,456 University Avenue,-122.159633,37.447702,http://maps.google.de/maps?f=q&source=s_q&hl=de&geocode=&q=37.447702 -122.159633&z=16&iwloc=A,
PDX20,5 Centerpointe Drive,UNITED STATES,PDX,Portland,97035,5 Centerpointe Drive,-122.74091,45.422163,http://maps.google.de/maps?f=q&source=s_q&hl=de&geocode=&q=45.422163 -122.740910&z=16&iwloc=A,https://go.sap.corp/PDX20
PIT71,North Shore (Ariba),UNITED STATES,PIT,Pittsburgh,15212,271 North Shore Dr.,-80.013221,40.44568,http://maps.google.de/maps?f=q&source=s_q&hl=de&geocode=&q=40.445680 -80.013221&z=16&iwloc=A,https://go.sap.corp/PIT71
PLC01,607 S. Alexander St.,UNITED STATES,PLC,Plant City,33563,607 S. Alexander St.,-82.13829,28.008985,http://maps.google.de/maps?f=q&source=s_q&hl=de&geocode=&q=28.008985 -82.138290&z=16&iwloc=A,
PVU45,191 W River Park Dr. (Qualtrics),UNITED STATES,PVU,Provo,84604,191 W River Park Dr.,-111.660583,40.302729,http://maps.google.de/maps?f=q&source=s_q&hl=de&geocode=&q=40.302729 -111.660583&z=16&iwloc=A,
PVU46,333 West River Park Drive (Qualtrics),UNITED STATES,PVU,Provo,84604,333 West River Park Drive,-111.663586,40.30325,http://maps.google.de/maps?f=q&source=s_q&hl=de&geocode=&q=40.303250 -111.663586&z=16&iwloc=A,
RBK85,Red Bank (Concur),UNITED STATES,RBK,Red Bank,7701,125 Half Mile RD Red Bank,-74.09398,40.33952,http://maps.google.de/maps?f=q&source=s_q&hl=de&geocode=&q=40.33952 -74.09398&z=16&iwloc=A,
RDU45,We Work - 1 Glenwood Ave (Qualtrics),UNITED STATES,RDU,Raleigh,27603,1 Glenwood Ave,-78.647792,35.780365,http://maps.google.de/maps?f=q&source=s_q&hl=de&geocode=&q=35.780365 -78.647792&z=16&iwloc=A,
SEA45,505 First Ave South (Qualtrics),UNITED STATES,SEA,Seattle,98104,505 First Ave South,-122.334673,47.597612,http://maps.google.de/maps?f=q&source=s_q&hl=de&geocode=&q=47.597612 -122.334673&z=16&iwloc=A,
SEA46,83 South King Street (Qualtrics),UNITED STATES,SEA,Seattle,98104,83 South King Street,-122.334944,47.598227,http://maps.google.de/maps?f=q&source=s_q&hl=de&geocode=&q=47.598227 -122.334944&z=16&iwloc=A,
SFO05,334 Brannan Street,UNITED STATES,SFO,San Francisco,94107,334 Brannan Street,-122.393015,37.781415,http://maps.google.de/maps?f=q&source=s_q&hl=de&geocode=&q=37.781415 -122.393015&z=16&iwloc=A,
SFO45,"Regus, 3 East Third Ave. (Qualtrics)",UNITED STATES,SFO,San Francisco,94401,3 East Third Ave,-122.326034,37.563452,http://maps.google.de/maps?f=q&source=s_q&hl=de&geocode=&q=37.563452 -122.326034&z=16&iwloc=A,
SFO60,Genesis Towers (Success Factors),UNITED STATES,SFO,San Francisco,94080,"One Tower Place, Suite 1100",-122.398047,37.666397,http://maps.google.de/maps?f=q&source=s_q&hl=de&geocode=&q=37.666397 -122.398047&z=16&iwloc=A,https://go.sap.corp/tp5
SFO85,888 Brannan Street (Concur),UNITED STATES,SFO,San Francisco,94103,888 Brannan Street,-122.405293,37.771739,http://maps.google.de/maps?f=q&source=s_q&hl=de&geocode=&q=37.771739 -122.405293&z=16&iwloc=A,https://go.sap.corp/pka
SRM01,Bishop Ranch-2700 Camino Ramon,UNITED STATES,SRM,San Ramon,94583,2700 Camino Ramon,-121.957266,37.762756,http://maps.google.de/maps?f=q&source=s_q&hl=de&geocode=&q=37.762756 -121.957266&z=16&iwloc=A,https://go.sap.corp/SRM01
STL03,7733 Forsyth Blvd Clayton,UNITED STATES,STL,St Louis,63105,7733 Forsyth Blvd. Clayton,-90.335207,38.650461,http://maps.google.de/maps?f=q&source=s_q&hl=de&geocode=&q=38.650461 -90.335207&z=16&iwloc=A,https://go.sap.corp/STL03
TEM01,Papago Park Center,UNITED STATES,TEM,Tempe,85281,"1101 W. Washington Street, Suite 401",-111.9557541,33.4418192,http://maps.google.de/maps?f=q&source=s_q&hl=de&geocode=&q=33.4418192 -111.9557541&z=16&iwloc=A,https://go.sap.corp/TEM01
VAC80,13115 NE 4th Street (CallidusCloud),UNITED STATES,VAC,Vancouver,11111,13115 NE 4th Street,-122.53961,45.622771,http://maps.google.de/maps?f=q&source=s_q&hl=de&geocode=&q=45.622771 -122.53961&z=16&iwloc=A,
VIA85,1919 Gallows Road (Concur),UNITED STATES,VIA,"Vienna, US",22182,1919 Gallows Road,-77.22655,38.913,http://maps.google.de/maps?f=q&source=s_q&hl=de&geocode=&q=38.91300 -77.22655&z=16&iwloc=A,https://go.sap.corp/pku
WDC02,Executive Tower,UNITED STATES,WDC,Washington D.C.,20005,"1399 New York Ave, NW, Suite 800",-77.0315555,38.8998638,http://maps.google.de/maps?f=q&source=s_q&hl=de&geocode=&q=38.8998638 -77.0315555&z=16&iwloc=A,https://go.sap.corp/WDC02
CCS01,Av. Principle de la Castellana,VENEZUELA,CCS,Caracas,1060,Av Principle de la Castellana,-66.852064,10.498857,http://maps.google.de/maps?f=q&source=s_q&hl=de&geocode=&q=10.498857 -66.852064&z=16&iwloc=A,https://portal.wdf.sap.corp/irj/portal?NavigationTarget=navurl://40bb72f93281ac53d6331a2049348d38
LAD01,Escom Towers,ANGOLA,LAD,Luanda,,"Marechal Bros Tito Street, nº 35/37",13.241278,-8.813699,"http://maps.google.de/maps?f=q&source=s_q&hl=de&geocode=&q=-8.813699, 13.241278&z=16&iwloc=A",
LNZ01,Langgasse 7,AUSTRIA,LNZ,Linz,4020,Langgasse 7,14.290572,48.298461,"http://maps.google.de/maps?f=q&source=s_q&hl=de&geocode=&q=48.298461, 14.290572&z=16&iwloc=A",https://portal.wdf.sap.corp/irj/portal?NavigationTarget=navurl://b49ad7f8cfad8a6596d12ef0a0d1d457
VIE01,Lasallestrasse 7b,AUSTRIA,VIE,Vienna,1021,Lassallestrasse 7b,16.39769,48.222983,"http://maps.google.de/maps?f=q&source=s_q&hl=de&geocode=&q=48.222983, 16.397690&z=16&iwloc=A",https://portal.wdf.sap.corp/irj/portal?NavigationTarget=navurl://e0ea94f6d92b21a835138533d02b803b
BAK01,90A Nizami Street,AZERBAIJAN,BAK,Baku,AZ1010,90A Nizami Street,49.8585,40.37839,"http://maps.google.de/maps?f=q&source=s_q&hl=de&geocode=&q=40.378390, 49.858500&z=16&iwloc=A",https://go.sap.corp/pe9
BAH02,Almoayyed Tower,BAHRAIN,BAH,Manama,18269,"Road Number 2832, Seef 428 District",50.5418656,26.2359029,http://maps.google.de/maps?f=q&source=s_q&hl=de&geocode=&q=26.2359029 50.5418656&z=16&iwloc=A,https://go.sap.corp/BAH02
MSQ03,Nemiga Street 40,BELARUS,MSQ,Minsk,220004,Nemiga Street 40,27.543087,53.899428,"http://maps.google.de/maps?f=q&source=s_q&hl=de&geocode=&q=53.899428, 27.543087&z=16&iwloc=A",https://go.sap.corp/ngo
BRU03,LEOPOLD III Building,BELGIUM,BRU,Brussels,1140,Avenue des Olympiades 2,4.406166,50.870417,"http://maps.google.de/maps?f=q&source=s_q&hl=de&geocode=&q=50.870417, 4.406166&z=16&iwloc=A",https://portal.wdf.sap.corp/irj/portal?NavigationTarget=navurl://305a54179cbbac038ec411cf99ffd6a3
BRU23,European Quarter,BELGIUM,BRU,Brussels,1040,2-4 Schuman Roundabout,4.383468,50.842032,"http://maps.google.de/maps?f=q&source=s_q&hl=de&geocode=&q=50.842032, 4.383468&z=16&iwloc=A",https://go.sap.corp/BRU23
SOF01,"Tzar Boris III, Blvd. 136 A",BULGARIA,SOF,Sofia,1618,"Tzar Boris III, Blvd, 136 A",23.266226,42.668993,"http://maps.google.de/maps?f=q&source=s_q&hl=de&geocode=&q=42.668993, 23.266226&z=16&iwloc=A",https://go.sap.corp/SOF01
SOF02,WT-Building,BULGARIA,SOF,Sofia,1784,Tsarigradsko Shose Blvd No 111B,23.374575,42.665134,"http://maps.google.de/maps?f=q&source=s_q&hl=de&geocode=&q=42.665134, 23.374575&z=16&iwloc=A",https://go.sap.corp/SOF02
SOF20,GBS_Temp,BULGARIA,SOF,Sofia,1619,3-5 Damianitza Str.,23.251006,42.666473,"http://maps.google.de/maps?f=q&source=s_q&hl=de&geocode=&q=42.666473, 23.251006&z=16&iwloc=A",https://go.sap.corp/opq
ZAG02,Grand Centar,CROATIA,ZAG,Zagreb,10000,Hektoroviceva 2,15.995717,45.804381,http://maps.google.de/maps?f=q&source=s_q&hl=de&geocode=&q=45.804381 15.995717&z=16&iwloc=A,https://portal.wdf.sap.corp/irj/portal?NavigationTarget=navurl://b145130ee756f51814a1e360fb4fcaa8
NIC01,Athena Building,CYPRUS,NIC,Nicosia,2003,92 Ifigeneias Str.,33.370877,35.154715,"http://maps.google.de/maps?f=q&source=s_q&hl=de&geocode=&q=35.154715, 33.370877&z=16&iwloc=A",https://portal.wdf.sap.corp/irj/portal?NavigationTarget=navurl://4ce52a1de03eed1df80c22c1542a839e
BRQ02,Spielberk Brno,CZECH REPUBLIC,BRQ,Brno,63900,Holandska 6/8,16.605803,49.181002,http://maps.google.de/maps?f=q&source=s_q&hl=de&geocode=&q=49.181002 16.605803&z=16&iwloc=A,https://portal.wdf.sap.corp/irj/portal?NavigationTarget=navurl://54b48e7918e57dc38a3b99be263d2968
PRA03,BBC BETA,CZECH REPUBLIC,PRA,Prague,14000,Vyskocilova 1481/4,14.456132,50.047602,"http://maps.google.de/maps?f=q&source=s_q&hl=de&geocode=&q=50.047602, 14.456132&z=16&iwloc=A",https://go.sap.corp/PRA03Prague
PRA05,Metronom,CZECH REPUBLIC,PRA,Prague,15800,Bucharova 2817/11,14.350631,50.051336,http://maps.google.de/maps?f=q&source=s_q&hl=de&geocode=&q=50.051336 14.350631&z=16&iwloc=A,https://go.sap.corp/pgg
CPH01,Lautrupsgade 11,DENMARK,CPH,Copenhagen,2100,Lautrupsgade 11,12.589554,55.710684,"http://maps.google.de/maps?f=q&source=s_q&hl=de&geocode=&q=55.710684, 12.589554&z=16&iwloc=A",https://portal.wdf.sap.corp/irj/portal?NavigationTarget=navurl://ab617b2c89e483706ee86c987ec771f4
CAI03,47th Office Building,EGYPT,CAI,Cairo,11835,North 90th Street,31.424591,30.02057,"http://maps.google.de/maps?f=q&source=s_q&hl=de&geocode=&q=30.020570, 31.424591&z=16&iwloc=A",https://portal.wdf.sap.corp/irj/portal?NavigationTarget=navurl://817b6bfa6f4a9eb8ba4c32da72c9a89b
CAI04,CFC (Cairo Festival City),EGYPT,CAI,Cairo,11835,"Apt 603, Block 47",31.43247,30.00127,"http://maps.google.de/maps?f=q&source=s_q&hl=de&geocode=&q=30.001270, 31.432470&z=16&iwloc=A",
CAI05,CFC (Cairo Festival City) Parcel No. 14b02,EGYPT,CAI,Cairo,11865,"90 Street, Sector 1, 5th Settlement",31.43247,30.00127,"http://maps.google.de/maps?f=q&source=s_q&hl=de&geocode=&q=30.001270, 31.432470&z=16&iwloc=A",
TLL01,Tallinn Metro Plaza,ESTONIA,TLL,Tallinn,10111,Viru Väljak 2,24.754006,59.437509,"http://maps.google.de/maps?f=q&source=s_q&hl=de&geocode=&q=59.437509, 24.754006&z=16&iwloc=A",https://portal.wdf.sap.corp/irj/portal?NavigationTarget=navurl://4a25ea87731d31d5d1f109c69a999077
HEL01,KS5,FINLAND,HEL,Helsinki,2150,Keilasatama 5,24.830033,60.172808,"http://maps.google.de/maps?f=q&source=s_q&hl=de&geocode=&q=60.172808, 24.830033&z=16&iwloc=A",https://portal.wdf.sap.corp/irj/portal?NavigationTarget=navurl://082db22a8895f671e1110f2e965b4da5
CFR01,"8, rue Commodore JH Hallet",FRANCE,CFR,Caen,14000,"8, rue Commodore JH Hallet",-0.391188,49.201153,"http://maps.google.de/maps?f=q&source=s_q&hl=de&geocode=&q=49.201153, -0.391188&z=16&iwloc=A",https://portal.wdf.sap.corp/irj/portal?NavigationTarget=navurl://3a5ab91634d5a63631e6e1e3822ef346
LYS01,62 Quai Charles de Gaulle,FRANCE,LYS,Lyon,69463,62 Quai Charles de Gaulle,4.854176,45.785647,http://maps.google.de/maps?f=q&source=s_q&hl=de&geocode=&q=45.785647 4.854176&z=16&iwloc=A,https://portal.wdf.sap.corp/irj/portal?NavigationTarget=navurl://7d3ad9a45b19677865ffc42a20d4fbbc
MRS20,Wellio,FRANCE,MRS,Marseille,13002,"Calypso, 48 quai du laza",5.3678146,43.3110028,http://maps.google.de/maps?f=q&source=s_q&hl=de&geocode=&q=43.3110028 5.3678146&z=16&iwloc=A,
NCE01,SAP Labs France S.A.S.,FRANCE,NCE,Mougins,6254,"805, avenue Maurice Donat - BP 1216",7.016997,43.61208,"http://maps.google.de/maps?f=q&source=s_q&hl=de&geocode=&q=43.612080, 7.016997&z=16&iwloc=A",https://portal.wdf.sap.corp/irj/portal?NavigationTarget=navurl://fe69ef16f0ae2fafb6e7352afd028bab
PAR08,Tour SAP,FRANCE,PAR,Paris,92309,"35, rue d' Alsace",2.297291,48.892864,"http://maps.google.de/maps?f=q&source=s_q&hl=de&geocode=&q=48.892864, 2.297291&z=16&iwloc=A",https://go.sap.corp/nxu
PAR09,5 rue Guy Moquet (Contextor),FRANCE,PAR,Paris,91400,5 rue Guy Moquet,2.191027,48.705874,"http://maps.google.de/maps?f=q&source=s_q&hl=de&geocode=&q=48.705874, 2.191027&z=16&iwloc=A",
PAR35,Office Building,FRANCE,PAR,Paris,75009,3 Rue Moncey,2.330888,48.879983,"https://www.google.de/maps/place/48%C2%B052'47.9%22N+2%C2%B019'51.2%22E/@48.8799839,2.3303408,19z",https://go.sap.corp/PAR35
PAR45,"WeWork, 33 Rue la Fayette (Qualtrics)",FRANCE,PAR,Paris,75009,33 Rue la Fayette,1.091246,49.433383,http://maps.google.de/maps?f=q&source=s_q&hl=de&geocode=&q=49.433383 1.091246&z=16&iwloc=A,
TLS20,Multiburo centre,FRANCE,TLS,Toulouse,31000,59 Allée Jean Jaurès,1.451854,43.608276,http://maps.google.de/maps?f=q&source=s_q&hl=de&geocode=&q=43.608276 1.451854&z=16&iwloc=A,
ATH01,20 Ellinidonstr.,GREECE,ATH,Athens,17564,20 Ellinidonstr.,23.698589,37.938889,http://maps.google.de/maps?f=q&source=s_q&hl=de&geocode=&q=37.938889 23.698589&z=16&iwloc=A,https://portal.wdf.sap.corp/irj/portal?NavigationTarget=navurl://0db24ddad4c1cd965e29dd58efeefa75
BUD02,Graphisoft Park I.,HUNGARY,BUD,Budapest,1031,Zahony utca 7,19.053772,47.55976,"http://maps.google.de/maps?f=q&source=s_q&hl=de&geocode=&q=47.559760, 19.053772&z=16&iwloc=A",https://portal.wdf.sap.corp/irj/portal?NavigationTarget=navurl://5aa059440fe633e218a2c97c7dcacab1
BUD05,(S2 S3),HUNGARY,BUD,Budapest,1031,Zahony utca 7,19.055862,47.561036,http://maps.google.de/maps?f=q&source=s_q&hl=de&geocode=&q=47.561036 19.055862&z=16&iwloc=A,https://go.sap.corp/BUD05
BUD06,S4 Zahony utca 7,HUNGARY,BUD,Budapest,1031,Zahony utca 7,19.053889,47.559806,http://maps.google.de/maps?f=q&source=s_q&hl=de&geocode=&q=47.559806 19.053889&z=16&iwloc=A,
BUD07,S5,HUNGARY,BUD,Budapest,1031,Zahony utca 7,19.053889,47.559806,http://maps.google.de/maps?f=q&source=s_q&hl=de&geocode=&q=47.559806 19.053889&z=16&iwloc=A,
DUB01,SAP SSC-Citywest Business Campus,IRELAND,DUB,"Dublin, IE",D24VF5D,1012 - 1014 Kingswood Avenue,-6.421634,53.294093,"http://maps.google.de/maps?f=q&source=s_q&hl=de&geocode=&q=53.294093, -6.421634&z=16&iwloc=A",https://portal.wdf.sap.corp/irj/portal?NavigationTarget=navurl://4870b4eb50cd5eae68921a08d8acb1b9
DUB02,Citywest Business Campus,IRELAND,DUB,"Dublin, IE",D24Y99R,Kingswood Avenue,-6.426859,53.294649,"http://maps.google.de/maps?f=q&source=s_q&hl=de&geocode=&q=53.294649, -6.426859&z=16&iwloc=A",https://portal.wdf.sap.corp/irj/portal?NavigationTarget=navurl://631c4c4d89cdd754361e452ccf4689d4
DUB03,"Building 5, Waterside",IRELAND,DUB,"Dublin, IE",D24X7FT,City West Business Campus,-6.425515,53.294077,"http://maps.google.de/maps?f=q&source=s_q&hl=de&geocode=&q=53.294077, -6.425515&z=16&iwloc=A",https://go.sap.corp/nxc
DUB05,Waterside 3,IRELAND,DUB,"Dublin, IE",D24WA02,Kingswood Ave,-6.42666,53.294673,http://maps.google.de/maps?f=q&source=s_q&hl=de&geocode=&q=53.294673 -6.42666&z=16&iwloc=A,https://go.sap.corp/DUB05
DUB45,Claredon Row (Qualtrics),IRELAND,DUB,"Dublin, IE",D02TA43,1 Claredon Row,-6.262454,53.340667,"http://maps.google.de/maps?f=q&source=s_q&hl=de&geocode=&q=53.340667, -6.262454&z=16&iwloc=A",
DUB46,Chatham Court (Qualtrics),IRELAND,DUB,"Dublin, IE",D02TA43,Claredon Row Dublin 2,-6.262459,53.340626,"http://maps.google.de/maps?f=q&source=s_q&hl=de&geocode=&q=53.340626, -6.262459&z=16&iwloc=A",
DUB80,(CallidusCloud),IRELAND,DUB,"Dublin, IE",D02CF97,Mount Street Lower Dublin,-6.241171,53.338142,"http://maps.google.de/maps?f=q&source=s_q&hl=de&geocode=&q=53.338142, -6.241171&z=16&iwloc=A",
GWY02,SAP SSC,IRELAND,GWY,Galway,H91W3P8,Parkmore East Business Park,-8.987643,53.301634,"http://maps.google.de/maps?f=q&source=s_q&hl=de&geocode=&q=53.301634, -8.987643&z=16&iwloc=A",https://portal.wdf.sap.corp/irj/portal?NavigationTarget=navurl://1523e88bfb1baadcfa39184961388408
GWY03,Cliona,IRELAND,GWY,Galway,H91R2E9,"Parkmore East Business Park, Block 1",-8.986479,53.302807,"http://maps.google.de/maps?f=q&source=s_q&hl=de&geocode=&q=53.302807, -8.986479&z=16&iwloc=A",https://go.sap.corp/GWY03
GWY04,Emer,IRELAND,GWY,Galway,H91HXE7,"Parkmore East Business Park, Block 4",-8.986479,53.302807,"http://maps.google.de/maps?f=q&source=s_q&hl=de&geocode=&q=53.302807, -8.986479&z=16&iwloc=A",https://go.sap.corp/GWY04
RAA03,14 Eli Huruvitz St,ISRAEL,RAA,Raanana,4366202,14 Eli Huruvitz St,34.88246084,32.20176073,http://maps.google.de/maps?f=q&source=s_q&hl=de&geocode=&q=32.20176073435534 34.8824608350958&z=16&iwloc=A,https://go.sap.corp/RAA03
TLV20,"Tel Aviv Azrieli Center, Triangular Tower",ISRAEL,TLV,Tel Aviv,67012,Derech Menachem Begin Rd. 132,"347,916,037",32.0744611,http://maps.google.de/maps?f=q&source=s_q&hl=de&geocode=&q=32.0744611 34.7916037&z=16&iwloc=A,https://go.sap.corp/TLV20
TLV22,LABS - Menahem Begin 121,ISRAEL,TLV,Tel Aviv,6701203,Menahem Begin 121,34.784871,32.061039,http://maps.google.de/maps?f=q&source=s_q&hl=de&geocode=&q=32.061039 34.784871&z=16&iwloc=A,https://go.sap.corp/TLV22
GOA21,Torre Lambruschini,ITALY,GOA,Genoa,16129,Piazzo Borga Pila 39,8.9484187,44.4040142,http://maps.google.de/maps?f=q&source=s_q&hl=de&geocode=&q=44.4040142 8.9484187&z=16&iwloc=A,https://go.sap.corp/GOA21
MIL02,Campus Technologico Energy Park,ITALY,MIL,Milan,20059,"Via Monza 7/a, Edificio 03",9.357169,45.59927,http://maps.google.de/maps?f=q&source=s_q&hl=de&geocode=&q=45.599270 9.357169&z=16&iwloc=A,https://portal.wdf.sap.corp/irj/portal?NavigationTarget=navurl://3a1d51f01f605da75735b1e2269c4646
ROM02,Via Amsterdam - Edificio Z 29,ITALY,ROM,Rome,144,Via Amsterdam 125,12.450404,41.824194,http://maps.google.de/maps?f=q&source=s_q&hl=de&geocode=&q=41.824194 12.450404&z=16&iwloc=A,https://portal.wdf.sap.corp/irj/portal?NavigationTarget=navurl://4cb13b2b38616da42533e80544e22163
ROM03,Via Sofia no. 4/8,ITALY,ROM,Rome,144,Via Sofia no. 4/8,12.45119,41.8236,http://maps.google.de/maps?f=q&source=s_q&hl=de&geocode=&q=41.82360 12.45119&z=16&iwloc=A,
ALA02,Alfaraby Avenue 36,KAZAKHSTAN,ALA,Almaty,50040,Alfaraby Street 36,76.943208,43.22639,http://maps.google.de/maps?f=q&source=s_q&hl=de&geocode=&q=43.226390 76.943208&z=16&iwloc=A,https://portal.wdf.sap.corp/irj/portal?NavigationTarget=navurl://b30281df2b8eb3f8cebfa2f0423c2dd0
TSE01,Astana Development,KAZAKHSTAN,TSE,Nur-Sultan,50040,Kabanbai batyra Avenue,71.414402,51.135963,http://maps.google.de/maps?f=q&source=s_q&hl=de&geocode=&q=51.135963 71.414402&z=16&iwloc=A,https://go.sap.corp/ndj
NIA03,Riverside 14,KENYA,NIA,Nairobi,100,Riverside 14,36.803365,-1.270179,http://maps.google.de/maps?f=q&source=s_q&hl=de&geocode=&q=-1.270179 36.803365&z=16&iwloc=A,https://portal.wdf.sap.corp/irj/portal?NavigationTarget=navurl://3218638e2b2635dd97cbc3f15a0c7c43
KWI03,Al Salhia,KUWAIT,KWI,Kuwait City,13095,Muhammad Thunayan al-Ghanim Street,47.9671339,29.3640736,http://maps.google.de/maps?f=q&source=s_q&hl=de&geocode=&q=29.3640736 47.9671339&z=16&iwloc=A,
RIX01,Kr.Valdemara iela 21,LATVIA,RIX,Riga,1010,Kr.Valdemara iela 21,24.113798,56.956797,http://maps.google.de/maps?f=q&source=s_q&hl=de&geocode=&q=56.956797 24.113798&z=16&iwloc=A,
VNO01,VERTAS,LITHUANIA,VNO,Vilnius,1116,Gyneju  str. 16,25.264635,54.693102,http://maps.google.de/maps?f=q&source=s_q&hl=de&geocode=&q=54.693102 25.264635&z=16&iwloc=A,
LUX20,REGUS Bertrange,LUXEMBOURG,LUX,Luxembourg,8070,Rue du Puits Romain 33-39,6.079771,49.60824,http://maps.google.de/maps?f=q&source=s_q&hl=de&geocode=&q=49.60824 6.079771&z=16&iwloc=A,https://go.sap.corp/LUX20
CMN02,Casanearshore,MOROCCO,CMN,Casablanca,20100,"Shore 10, Plateau 601",-7.642459,33.526117,http://maps.google.de/maps?f=q&source=s_q&hl=de&geocode=&q=33.526117 -7.642459&z=16&iwloc=A,
AMS45,"Regus, Keizersgracht 555 (Qualtrics)",NETHERLANDS,AMS,Amsterdam,1017 DR,Keizersgracht 555,4.8901,52.36458,http://maps.google.de/maps?f=q&source=s_q&hl=de&geocode=&q=52.36458 4.8901&z=16&iwloc=A,
HTB02,Amerikastraat 10 - Postbus 3292,NETHERLANDS,HTB,s-Hertogenbosch,5232 DG,Amerikastraat 10,5.339498,51.712722,http://maps.google.de/maps?f=q&source=s_q&hl=de&geocode=&q=51.712722 5.339498&z=16&iwloc=A,https://portal.wdf.sap.corp/irj/portal?NavigationTarget=navurl://00dd08f8badd8db8deb5d6156115b12f
HTB04,Westeind,NETHERLANDS,HTB,s-Hertogenbosch,5247 JK,Westeind 7,5.360837,51.736148,http://maps.google.de/maps?f=q&source=s_q&hl=de&geocode=&q=51.736148 5.360837&z=16&iwloc=A,
RTM80,Rotterdam Brainpark (CallidusCloud),NETHERLANDS,RTM,Rotterdam,3062000,Lichtenauerlaan 102-120,4.5353959,51.924092,http://maps.google.de/maps?f=q&source=s_q&hl=de&geocode=&q=51.924092 4.5353959&z=16&iwloc=A,
LOS02,Mansard,NIGERIA,LOS,Lagos,101001,Bishop Aboyade Cole Street,3.43839,6.435833,"http://maps.google.de/maps?f=q&source=s_q&hl=de&geocode=&q=6.435833, 3.438390&z=16&iwloc=A",https://go.sap.corp/nxe
OSL01,"Lysaker Torg 5, P.O. box 42",NORWAY,OSL,Oslo,1324,"Lysaker Torg 5, P.O. box 42",10.63717,59.912354,http://maps.google.de/maps?f=q&source=s_q&hl=de&geocode=&q=59.912354 10.637170&z=16&iwloc=A,https://portal.wdf.sap.corp/irj/portal?NavigationTarget=navurl://28aa8c7a3dd90c5a44d45bc26804b72f
TRD02,Bakklandet P-hus,NORWAY,TRD,Trondheim,7014,Nedre Bakklandet 60,10.407287,63.431964,http://maps.google.de/maps?f=q&source=s_q&hl=de&geocode=&q=63.431964 10.407287&z=16&iwloc=A,
TRD20,(Fedem Technology),NORWAY,TRD,Trondheim,7014,Nedre Bakklandet 58 C,10.406077,63.431933,http://maps.google.de/maps?f=q&source=s_q&hl=de&geocode=&q=63.431933 10.406077&z=16&iwloc=A,
MCT02,KOM (Knowledge Oasis Muscat),OMAN,MCT,Muscat,,"Rusayl 124, PO BOX 200",58.170167,23.567592,http://maps.google.de/maps?f=q&source=s_q&hl=de&geocode=&q=23.567592 58.170167&z=16&iwloc=A,https://go.sap.corp/r5y
MCT03,Bait al Reem Building,OMAN,MCT,Muscat,,"Way No 3409, Block 234",58.56575,23.57628,http://maps.google.de/maps?f=q&source=s_q&hl=de&geocode=&q=23.576280 58.565750&z=16&iwloc=A,
ISB03,ISE Towers,PAKISTAN,ISB,Islamabad,44000,Jinnah Avenue,73.0578,33.7119,http://maps.google.de/maps?f=q&source=s_q&hl=de&geocode=&q=33.7119 73.0578&z=16&iwloc=A,
KHI20,Dolmen,PAKISTAN,KHI,Karachi,74800,Marine Drive,67.029787,24.802262,http://maps.google.de/maps?f=q&source=s_q&hl=de&geocode=&q=24.802262 67.029787&z=16&iwloc=A,
KRK45,ul. Pawia 7 (Qualtrics),POLAND,KRK,Krakau,31-155,ul. Pawia 7,19.946289,50.066662,http://maps.google.de/maps?f=q&source=s_q&hl=de&geocode=&q=50.066662 19.946289&z=16&iwloc=A,
QGL01,Jana Pawla II 14G,POLAND,QGL,Gliwice,44-100,Jana Pawla II 14G,18.667436,50.291117,http://maps.google.de/maps?f=q&source=s_q&hl=de&geocode=&q=50.2911170000 18.667435999&z=16&iwloc=A,
QGL02,Dworcowa 27,POLAND,QGL,Gliwice,44-100,Dworcowa 27,18.6696663,50.2939448,http://maps.google.de/maps?f=q&source=s_q&hl=de&geocode=&q=50.2939448 18.669666300&z=16&iwloc=A,
QGL03,Wybrzeże Armii Krajowej,POLAND,QGL,Gliwice,44-100,Wybrzeże Armii Krajowej,18.6645383,50.3007938,http://maps.google.de/maps?f=q&source=s_q&hl=de&geocode=&q=50.3007938 18.6645383000&z=16&iwloc=A,
QGL75,ul. Zwyciestwa 23 (Hybris),POLAND,QGL,Gliwice,44-100,ul. Zwyciestwa 23,18.670341,50.296605,http://maps.google.de/maps?f=q&source=s_q&hl=de&geocode=&q=50.296605 18.670341&z=16&iwloc=A,https://go.sap.corp/nxf
WAW01,Taurus building,POLAND,WAW,Warsaw,02-675,ul. Woloska 5,20.999893,52.180916,http://maps.google.de/maps?f=q&source=s_q&hl=de&geocode=&q=52.180916 20.999893&z=16&iwloc=A,https://portal.wdf.sap.corp/irj/portal?NavigationTarget=navurl://f974e5889fbc81f744b99a597b7736e6
WAW02,CEZA,POLAND,WAW,Warsaw,02-676,Postepu 19,20.9967294,52.1820413,http://maps.google.de/maps?f=q&source=s_q&hl=de&geocode=&q=52.1820412999 20.996729400&z=16&iwloc=A,
LIS02,Edificio 14,PORTUGAL,LIS,Lisbon,2740-267,"Edificio 14, Piso 3",-9.311512,38.711984,http://maps.google.de/maps?f=q&source=s_q&hl=de&geocode=&q=38.711984 -9.311512&z=16&iwloc=A,https://portal.wdf.sap.corp/irj/portal?NavigationTarget=navurl://ef62b90e7e65847fc48763715c5a87a5
DOH02,Quatar Science & Technologie Park,QATAR,DOH,Doha,210000,Al Gjarrafa Street,51.528947,25.320481,http://maps.google.de/maps?f=q&source=s_q&hl=de&geocode=&q=25.320481 51.528947&z=16&iwloc=A,https://portal.wdf.sap.corp/irj/portal?NavigationTarget=navurl://4a31291242179bd1a9a585cfc876b87e
DOH03,Al Fardan Tower,QATAR,DOH,Doha,26660,61 Al Funduq Street,51.529105,25.320513,http://maps.google.de/maps?f=q&source=s_q&hl=de&geocode=&q=25.320513 51.529105&z=16&iwloc=A,https://go.sap.corp/r60
BEG01,Airport City Belgrade,REPUBLIC SERBIA,BEG,Belgrade,11000,Omladinskih Brigada Street 88b,20.39691,44.812716,http://maps.google.de/maps?f=q&source=s_q&hl=de&geocode=&q=44.812716 20.396910&z=16&iwloc=A,https://portal.wdf.sap.corp/irj/portal?NavigationTarget=navurl://ae1bb7b468068ad9d2d2ba130d918ec0
BEG02,Airport City Belgrade,REPUBLIC SERBIA,BEG,Belgrade,11070,Omladinskih Brigada / 88-90,20.399747,44.81161,http://maps.google.de/maps?f=q&source=s_q&hl=de&geocode=&q=44.811610 20.399747&z=16&iwloc=A,
BEG80,Building ​​Dahlia (CallidusCloud),REPUBLIC SERBIA,BEG,Belgrade,11070,"90G, Omladinskih Brigada St.",20.399019,44.811281,http://maps.google.de/maps?f=q&source=s_q&hl=de&geocode=&q=44.811281 20.399019&z=16&iwloc=A,
BUH01,LA Building,ROMANIA,BUH,Bucharest,13714,"Calea Tipografilor 11-15, A1",26.072635,44.483656,http://maps.google.de/maps?f=q&source=s_q&hl=de&geocode=&q=44.483656 26.072635&z=16&iwloc=A,https://portal.wdf.sap.corp/irj/portal?NavigationTarget=navurl://ff4e4dd5a44866853f88ee18b9adc70a
CLJ02,CLUJ Business Center,ROMANIA,CLJ,Cluj-Napoca,400616,Henri Barbusse No. 44-66,23.60793,46.782715,http://maps.google.de/maps?f=q&source=s_q&hl=de&geocode=&q=46.782715 23.607930&z=16&iwloc=A,https://go.sap.corp/nxg
TSR01,City Business Development Centre,ROMANIA,TSR,Timisoara,300011,Brediceanu 10,21.2211,45.757143,http://maps.google.de/maps?f=q&source=s_q&hl=de&geocode=&q=45.757143 21.221100&z=16&iwloc=A,https://portal.wdf.sap.corp/irj/portal?NavigationTarget=navurl://a558859eac31cf1fd329a9e6336143e3
TSR02,Str Coriolan Brediceanu no 10,ROMANIA,TSR,Timisoara,300011,Str Coriolan Brediceanu no 10,21.22127,45.75756,,https://go.sap.corp/TSR02
LED01,23 Malaja Morskaja ul.,RUSSIA,LED,St. Petersburg,190000,23 Malaja Morskaja ul.,30.308976,59.934463,http://maps.google.de/maps?f=q&source=s_q&hl=de&geocode=&q=59.934463 30.308976&z=16&iwloc=A,https://portal.wdf.sap.corp/irj/portal?NavigationTarget=navurl://8e5d5a3f06d66ec2dd0cad3cb3e8572a
MOW01,Kosmodamianskaja nab.  52/2,RUSSIA,MOW,Moscow,115054,Kosmodamianskaja nab.  52/2,37.646237,55.73228,http://maps.google.de/maps?f=q&source=s_q&hl=de&geocode=&q=55.732280 37.646237&z=16&iwloc=A,https://portal.wdf.sap.corp/irj/portal?NavigationTarget=navurl://d4fef13c352cc6a921c248dbf7541811
MOW04,Kosmodamianskaja nab. 52/7,RUSSIA,MOW,Moscow,115054,Kosmodamianskaya nab. 52/7,37.645857,55.734674,http://maps.google.de/maps?f=q&source=s_q&hl=de&geocode=&q=55.734674 37.645857&z=16&iwloc=A,https://portal.wdf.sap.corp/irj/portal?NavigationTarget=navurl://a9ddbd708c5510b243c142faac195c77
MOW05,OAO Moskva Krasnye Holmy,RUSSIA,MOW,Moscow,115054,"Kosmodamianskaya nab., 52",37.643887,55.733017,http://maps.google.de/maps?f=q&source=s_q&hl=de&geocode=&q=55.733017 37.643887&z=16&iwloc=A,https://go.sap.corp/pi6
SVX02,Business Center PALLADIUM,RUSSIA,SVX,Ekaterinburg,620014,Hohryakova str.10,60.590831,56.835613,http://maps.google.de/maps?f=q&source=s_q&hl=de&geocode=&q=56.835613 60.590831&z=16&iwloc=A,https://go.sap.corp/SVX
ALK02,Khobar Gate,SAUDI ARABIA,ALK,Al Khobar,,King Fahad Road,50.211511,26.308458,http://maps.google.de/maps?f=q&source=s_q&hl=de&geocode=&q=26.308458 50.211511&z=16&iwloc=A,https://go.sap.corp/r63
JED01,(Jameel Square),SAUDI ARABIA,JED,Jeddah,21444,Altahliah St. P.O. Box 15496,39.153689,21.549437,http://maps.google.de/maps?f=q&source=s_q&hl=de&geocode=&q=21.549437 39.153689&z=16&iwloc=A,https://go.sap.corp/JED01
RUH02,ITCC RD-01,SAUDI ARABIA,RUH,Riyadh,11435,Al Thuraya,46.636625,24.741513,http://maps.google.de/maps?f=q&source=s_q&hl=de&geocode=&q=24.741513 46.636625&z=16&iwloc=A,https://go.sap.corp/r62
BTS03,Twin City C,SLOVAKIA,BTS,Bratislava,82109,Mlynske nivy 16,17.123971,48.146549,http://maps.google.de/maps?f=q&source=s_q&hl=de&geocode=&q=48.146549 17.12397&z=16&iwloc=A,https://go.sap.corp/BTS03
KSC70,Sturova 27/A (Ariba),SLOVAKIA,KSC,Kosice,4001,Sturova 27/A/Tower C,21.250398,48.717218,http://maps.google.de/maps?f=q&source=s_q&hl=de&geocode=&q=48.717218 21.250398&z=16&iwloc=A,https://go.sap.corp/nxj
LJU01,Rotonda Building,SLOVENIA,LJU,Ljubljana,1000,Dunajska cesta 165,14.512896,46.082611,http://maps.google.de/maps?f=q&source=s_q&hl=de&geocode=&q=46.082611 14.512896&z=16&iwloc=A,https://go.sap.corp/nxk
CPT01,Century City,SOUTH AFRICA,CPT,Cape Town,7441,"7 Boundary Road, Waterford Precinct",18.520355,-33.889847,http://maps.google.de/maps?f=q&source=s_q&hl=de&geocode=&q=-33.889847 18.520355&z=16&iwloc=A,https://portal.wdf.sap.corp/irj/portal?NavigationTarget=navurl://870a0fea3ca534d71ea954f1be5b6068
DBN20,Regus Umhlanga,SOUTH AFRICA,DBN,Durban,4301,21 Aurora Drive,31.070497,-29.723208,http://maps.google.de/maps?f=q&source=s_q&hl=de&geocode=&q=-29.723208 31.070497&z=16&iwloc=A,
JNB01,Building 1 - SAP Office Park 1,SOUTH AFRICA,JNB,Johannesburg,2148,"Woodmead Drive, Woodmead, Sand",28.089483,-26.052292,http://maps.google.de/maps?f=q&source=s_q&hl=de&geocode=&q=-26.052292 28.089483&z=16&iwloc=A,https://portal.wdf.sap.corp/irj/portal?NavigationTarget=navurl://b8f5d2ba4d20ca888acfdc13d40a63ea
JNB02,Building 2 - SAP Office Park 1,SOUTH AFRICA,JNB,Johannesburg,2148,"Woodmead Drive, Woodmead, Sand",28.088847,-26.05257,http://maps.google.de/maps?f=q&source=s_q&hl=de&geocode=&q=-26.052570 28.088847&z=16&iwloc=A,https://portal.wdf.sap.corp/irj/portal?NavigationTarget=navurl://b8f5d2ba4d20ca888acfdc13d40a63ea
JNB03,Building 3 - SAP Office Park 1,SOUTH AFRICA,JNB,Johannesburg,2148,"Woodmead Drive, Woodmead, Sand",28.088862,-26.052096,http://maps.google.de/maps?f=q&source=s_q&hl=de&geocode=&q=-26.052096 28.088862&z=16&iwloc=A,https://portal.wdf.sap.corp/irj/portal?NavigationTarget=navurl://b8f5d2ba4d20ca888acfdc13d40a63ea
JNB04,Building 4 - SAP Office Park 1,SOUTH AFRICA,JNB,Johannesburg,2148,"Woodmead Drive, Woodmead, Sand",28.088889,-26.051326,http://maps.google.de/maps?f=q&source=s_q&hl=de&geocode=&q=-26.051326 28.088889&z=16&iwloc=A,https://portal.wdf.sap.corp/irj/portal?NavigationTarget=navurl://b8f5d2ba4d20ca888acfdc13d40a63ea
JNB05,Building 5 - SAP Office Park 1,SOUTH AFRICA,JNB,Johannesburg,2148,"Woodmead Drive, Woodmead, Sand",28.089426,-26.051288,http://maps.google.de/maps?f=q&source=s_q&hl=de&geocode=&q=-26.051288 28.089426&z=16&iwloc=A,https://portal.wdf.sap.corp/irj/portal?NavigationTarget=navurl://b8f5d2ba4d20ca888acfdc13d40a63ea
BCN01,Edificio Torre Diagonal Mar.,SPAIN,BCN,Barcelona,8019,"c/Josep Pla, no 2. Planta 13",2.218133,41.407519,"http://maps.google.de/maps?f=q&source=s_q&hl=de&geocode=&q=41.407519, 2.218133&z=16&iwloc=A",https://portal.wdf.sap.corp/irj/portal?NavigationTarget=navurl://3663148e8a7dd7b15e4277d8ddcc4017
MAD02,Edificio Flex.,SPAIN,MAD,Madrid,28043,"Torrelaguna, 77 Bloque SAP",-3.65652,40.446846,"http://maps.google.de/maps?f=q&source=s_q&hl=de&geocode=&q=40.446846, -3.656520&z=16&iwloc=A",https://portal.wdf.sap.corp/irj/portal?NavigationTarget=navurl://85f6963b241e2f875667b0602771462b
MAD03,Edificio SONAE,SPAIN,MAD,Madrid,28043,"Ramirez Arellano, 21",-3.6559366,40.448416,"http://maps.google.de/maps?f=q&source=s_q&hl=de&geocode=&q=40.448416, -3.6559366&z=16&iwloc=A",
MAD45,"Regus, Paseo de la Castellana 200 (Qualtrics)",SPAIN,MAD,Madrid,28046,Paseo de la Castellana 200,-3.688633,40.462664,"http://maps.google.de/maps?f=q&source=s_q&hl=de&geocode=&q=40.462664, -3.688633&z=16&iwloc=A",
GOT20,Maessans gata 18,SWEDEN,GOT,Gothenburg,40224,Maessans gata 18,11.986685,57.698437,http://maps.google.de/maps?f=q&source=s_q&hl=de&geocode=&q=57.698437 11.986685&z=16&iwloc=A,
MMX20,Hyllie Stationstorg 31,SWEDEN,MMX,Malmoe,21532,Hyllie Stationstorg 31,12.976422,55.562024,http://maps.google.de/maps?f=q&source=s_q&hl=de&geocode=&q=55.562024 12.976422&z=16&iwloc=A,
STO02,Sveavägen 44,SWEDEN,STO,Stockholm,11134,Sveavägen 44,18.062488,59.337111,http://maps.google.de/maps?f=q&source=s_q&hl=de&geocode=&q=59.337111 18.062488&z=16&iwloc=A,https://go.sap.corp/nxl
STO45,United Spaces (Qualtrics),SWEDEN,STO,Stockholm,10123,Klarabergsviadukten 36,18.058137,59.331166,http://maps.google.de/maps?f=q&source=s_q&hl=de&geocode=&q=59.331166 18.058137&z=16&iwloc=A,
BIE01,Altbau,SWITZERLAND,BIE,Biel,2500,Leugenestrasse 6,7.289226,47.163655,"http://maps.google.de/maps?f=q&source=s_q&hl=de&geocode=&q=47.163655, 7.289226&z=16&iwloc=A",https://portal.wdf.sap.corp/irj/portal?NavigationTarget=navurl://3e5875ed15be7aa736067dc3b2bf1bdd
BIE02,Neubau,SWITZERLAND,BIE,Biel,2500,Leugenestrasse 6a,7.289186,47.163985,"http://maps.google.de/maps?f=q&source=s_q&hl=de&geocode=&q=47.163985, 7.289186&z=16&iwloc=A",https://portal.wdf.sap.corp/irj/portal?NavigationTarget=navurl://3e5875ed15be7aa736067dc3b2bf1bdd
LSN01,SAP World Trade Center,SWITZERLAND,LSN,Lausanne,1018,"Ave. Gratta-Paille 2, 30 Gray",6.617412,46.536792,"http://maps.google.de/maps?f=q&source=s_q&hl=de&geocode=&q=46.536792, 6.617412&z=16&iwloc=A",https://portal.wdf.sap.corp/irj/portal?NavigationTarget=navurl://3c887a6d5a45e2841d60fd089771f186
REG01,SAP Solution Center (SSC),SWITZERLAND,REG,Regensdorf,8105,Althardtstr. 80,8.471577,47.439797,"http://maps.google.de/maps?f=q&source=s_q&hl=de&geocode=&q=47.439797, 8.471577&z=16&iwloc=A",https://portal.wdf.sap.corp/irj/portal?NavigationTarget=navurl://cb479d4baa1eb77f89ac6c241ac66815
TGW01,High-Tech-Center (SAF),SWITZERLAND,TGW,Taegerwilen,8274,Bahnstrasse 2,9.128807,47.659829,"http://maps.google.de/maps?f=q&source=s_q&hl=de&geocode=&q=47.659829, 9.128807&z=16&iwloc=A",https://go.sap.corp/TGW_01
VEV01,Passage de la Chocolaterie 1,SWITZERLAND,VEV,Vevey,1800,Passage de la Chocolaterie 1,6.8433573,46.4657562,"http://maps.google.de/maps?f=q&source=s_q&hl=de&geocode=&q=46.4657562, 6.8433573&z=16&iwloc=A",https://go.sap.corp/ot0
WDS40,(Coresystems),SWITZERLAND,WDS,Windisch,5210,Dorfstrasse 69,8.230425,47.482545,"http://maps.google.de/maps?f=q&source=s_q&hl=de&geocode=&q=47.482545, 8.230425&z=16&iwloc=A",
ANK02,TEPE PRIME,TURKEY,ANK,Ankara,6800,Eskisehir Devlet Yolu No. 9,32.75518,39.909054,http://maps.google.de/maps?f=q&source=s_q&hl=de&geocode=&q=39.909054 32.755180&z=16&iwloc=A,https://go.sap.corp/ANK02
IST03,Development Center Turkey,TURKEY,IST,Istanbul,34906,Sanayi Mah. Teknopark Bulvari,29.315323,40.919801,http://maps.google.de/maps?f=q&source=s_q&hl=de&geocode=&q=40.919801 29.315323&z=16&iwloc=A,https://go.sap.corp/nxn
IST04,EMAAR,TURKEY,IST,Istanbul,34700,Uenalan mah. Libadiye cad. no:82 F,29.071972,41.004028,http://maps.google.de/maps?f=q&source=s_q&hl=de&geocode=&q=41.004028 29.071972&z=16&iwloc=A,https://go.sap.corp/IST04
IZM20,Bayraklı Tower,TURKEY,IZM,Izmir,35030,"Ankara Caddesi No. 81, 14/B",27.187133,38.450685,http://maps.google.de/maps?f=q&source=s_q&hl=de&geocode=&q=38.450685 27.1871330&z=16&iwloc=A,
IEV02,5 Dilova,UKRAINE,IEV,Kiev,3150,5 Dilova Street,30.51771,50.429037,http://maps.google.de/maps?f=q&source=s_q&hl=de&geocode=&q=50.429037 30.517710&z=16&iwloc=A,https://portal.wdf.sap.corp/irj/portal?NavigationTarget=navurl://33dac63b490b5c77fb45739384ff8510
AUH22,Tamouh,UNITED ARAB EMIRATES,AUH,Abu Dhabi,,"Reem Island, Marina Square, PO Box 2576",54.395046,24.488144,"http://maps.google.de/maps?f=q&source=s_q&hl=de&geocode=&q=24.488144, 54.395046&z=16&iwloc=A",
DXB06,Butterfly Building B,UNITED ARAB EMIRATES,DXB,Dubai,,"Al Bourooj Street, P.O Box 118353",55.1627767,25.1043051,"http://maps.google.de/maps?f=q&source=s_q&hl=de&geocode=&q=25.1043051, 55.1627767&z=16&iwloc=A",https://go.sap.corp/r5z
BFS02,Concourse 1,UNITED KINGDOM,BFS,Belfast,BT3 9DT,Queen's Road,-5.898563,54.614911,http://maps.google.de/maps?f=q&source=s_q&hl=de&geocode=&q=54.614911 -5.898563&z=16&iwloc=A,https://portal.wdf.sap.corp/irj/portal?NavigationTarget=navurl://8ad523be2860c98f2c6e9f6c6502a47e
BOH80,Branksome Park House (CallidusCloud),UNITED KINGDOM,BOH,Bournemouth,BH121ED,"Bourne Valley Road, Suite 7",-1.914097,50.730106,http://maps.google.de/maps?f=q&source=s_q&hl=de&geocode=&q=50.7300106 -1.914097&z=16&iwloc=A,
CRY86,Astral Towers (Concur),UNITED KINGDOM,CRY,Crawley,RH10 9XA,Betts Way - West Sussex,-0.186938,51.135433,http://maps.google.de/maps?f=q&source=s_q&hl=de&geocode=&q=51.135433 -0.186938&z=16&iwloc=A,https://go.sap.corp/CRY85
LON01,Feltham - Clockhouse Place,UNITED KINGDOM,LON,London,TW14 8HD,Bedfont Road  - Middlesex,-0.445032,51.449006,http://maps.google.de/maps?f=q&source=s_q&hl=de&geocode=&q=51.449006 -0.445032&z=16&iwloc=A,https://portal.wdf.sap.corp/irj/portal?NavigationTarget=navurl://a668ff08871883774ca1cdb6fc1ce33c
LON03,Vanwall Business Park,UNITED KINGDOM,LON,London,SL6 4UB,Vanwall Road,-0.747677,51.511568,http://maps.google.de/maps?f=q&source=s_q&hl=de&geocode=&q=51.511568 -0.747677&z=16&iwloc=A,https://portal.wdf.sap.corp/irj/portal?NavigationTarget=navurl://462e1ab01ee0a377c65f6c3e3eefe770
LON30,6 Ramilles St. (Gigya),UNITED KINGDOM,LON,London,W1F 7TY,6 Ramilles St.,-0.1389977,51.5150856,http://maps.google.de/maps?f=q&source=s_q&hl=de&geocode=&q=51.5150856 -0.1389977&z=16&iwloc=A,
LON45,"WeWork, Two Southbank Place (Qualtrics)",UNITED KINGDOM,LON,London,SE17NX,Two Southbank Place,-0.114998,51.504034,http://maps.google.de/maps?f=q&source=s_q&hl=de&geocode=&q=51.504034 -0.114998&z=16&iwloc=A,
LON51,Equitable House  (Sybase),UNITED KINGDOM,LON,London,EC4R 9AF,47 King William Street,-0.086478,51.510557,http://maps.google.de/maps?f=q&source=s_q&hl=de&geocode=&q=51.510557 -0.086478&z=16&iwloc=A,https://portal.wdf.sap.corp/irj/portal?NavigationTarget=navurl://c7f77389af4f93b40d5e914256063aca
LON66,240 Blackfriars Road (Fieldglass),UNITED KINGDOM,LON,London,SE1,240 Blackfriars Road,-0.10432,51.506501,http://maps.google.de/maps?f=q&source=s_q&hl=de&geocode=&q=51.506501 -0.104320&z=16&iwloc=A,
LON75,2 Copthall Avenue (Hybris),UNITED KINGDOM,LON,London,EC2R7DA,"2 Copthall Avenue, 5th Floor",-0.087733,51.515807,http://maps.google.de/maps?f=q&source=s_q&hl=de&geocode=&q=51.515807 -0.087733&z=16&iwloc=A,https://go.sap.corp/LON75
MAC01,25 King Street,UNITED KINGDOM,MAC,Manchester,WA16 6DW,25 King Street,-2.371544,53.303198,http://maps.google.de/maps?f=q&source=s_q&hl=de&geocode=&q=53.303198 -2.371544&z=16&iwloc=A,https://portal.wdf.sap.corp/irj/portal?NavigationTarget=navurl://915302ca1432d9ac170614dd41a62b9c
MAC80,Darwin House - Suite E (CallidusCloud),UNITED KINGDOM,MAC,Manchester,WA36GA,Birchwood Park,-2.524172,53.428424,http://maps.google.de/maps?f=q&source=s_q&hl=de&geocode=&q=53.428424 -2.524172&z=16&iwloc=A,
SIB85,202 Winch Road (Concur),UNITED KINGDOM,SIB,Sittingbourne,ME9 8EF,202 Winch Road,0.72487,51.31365,http://maps.google.de/maps?f=q&source=s_q&hl=de&geocode=&q=51.31365 0.72487&z=16&iwloc=A,https://go.sap.corp/SIB85
TAS20,"""Tashkent""",UZBEKISTAN,TAS,Tashkent,100050,Yashnobodskiy District,69.366777,41.32773,http://maps.google.de/maps?f=q&source=s_q&hl=de&geocode=&q=41.327730 69.366777&z=16&iwloc=A,https://go.sap.corp/TAS20
BER03,Rosenthaler Straße 30,GERMANY,BER,Berlin,10178,Rosenthaler Strasse 30,13.40332,52.525778,http://maps.google.de/maps?f=q&source=s_q&hl=de&geocode=&q=52.525778 13.40332&z=16&iwloc=A,https://portal.wdf.sap.corp/irj/portal?NavigationTarget=navurl://e2cf50aafe8364e1e814faf4843b3091
BER09,Rosenthaler Straße 31,GERMANY,BER,Berlin,10178,Rosenthaler Straße 31,13.40325,52.52552,http://maps.google.de/maps?f=q&source=s_q&hl=de&geocode=&q=52.525778 13.40332&z=16&iwloc=A,
BER10,Münzstraße 13-15,GERMANY,BER,Berlin,10178,Münzstraße 13-15,13.4076185,52.5244903,http://maps.google.de/maps?f=q&source=s_q&hl=de&geocode=&q=52.5244903 13.4076185&z=16&iwloc=A,https://go.sap.corp/n1d
BER11,Rosenthaler Str. 38 (DATA SPACE),GERMANY,BER,Berlin,10178,Rosenthaler Straße 38,13.402572,52.524364,http://maps.google.de/maps?f=q&source=s_q&hl=de&geocode=&q=52.524364 13.402572&z=16&iwloc=A,https://go.sap.corp/BER11
BON02,Godesberger Allee 171,GERMANY,BON,Bonn,53175,Godesberger Allee 171,7.133588,50.704156,http://maps.google.de/maps?f=q&source=s_q&hl=de&geocode=&q=50.704156 7.133588&z=16&iwloc=A,
BON03,Zanderstrasse 7,GERMANY,BON,Bonn,53177,Zanderstrasse 7,7.16281,50.67819,http://maps.google.de/maps?f=q&source=s_q&hl=de&geocode=&q=50.67819 7.16281&z=16&iwloc=A,https://go.sap.corp/bon03
DRE03,Falkenbrunnen,GERMANY,DRE,Dresden,1187,Chemnitzer Straße 48,13.710855,51.033007,"http://maps.google.de/maps?f=q&source=s_q&hl=de&geocode=&q=51.033007, 13.710855&z=16&iwloc=A",https://portal.wdf.sap.corp/irj/portal?NavigationTarget=navurl://12dd56620eb4be694aca3a86706b6d11
DRE04,Postplatz 1/Wilsdruffer Straße 24,GERMANY,DRE,Dresden,1067,Postplatz 1/Wilsdruffer Straße 24,13.734082,51.051184,"http://maps.google.de/maps?f=q&source=s_q&hl=de&geocode=&q=51.051184, 13.734082&z=16&iwloc=A",https://portal.wdf.sap.corp/irj/portal?NavigationTarget=navurl://fcae5b3aa49c44b13c86fd582eca3480
DRE05,"Am Postplatz 5,6",GERMANY,DRE,Dresden,1067,"Am Postplatz 5,6/Schweriner Str. 1",13.731306,51.051114,"http://maps.google.de/maps?f=q&source=s_q&hl=de&geocode=&q=51.051114, 13.731306&z=16&iwloc=A",
DRE06,Strassburger Platz 1,GERMANY,DRE,Dresden,1307,Strassburger Platz 1,13.7568724,51.0463105,"http://maps.google.de/maps?f=q&source=s_q&hl=de&geocode=&q=51.0463105, 13.7568724&z=16&iwloc=A",https://go.sap.corp/DRE06
DUE04,SAP-Platz 1,GERMANY,DUE,Duesseldorf,40882,SAP Platz 1,6.8669,51.290481,"http://maps.google.de/maps?f=q&source=s_q&hl=de&geocode=&q=51.290481, 6.866900&z=16&iwloc=A",https://go.sap.corp/DUE04
FRA01,Eschborn,GERMANY,FRA,Frankfurt a.M.,65760,Frankfurter Strasse 1,8.5653099,50.1327302,http://maps.google.de/maps?f=q&source=s_q&hl=de&geocode=&q=50.1327302 8.5653099&z=16&iwloc=A,https://go.sap.corp/u3k
FRE01,Gruendelbachstraße 10,GERMANY,FRE,Freiberg a.N.,71691,Gruendelbachstraße 10,9.179229,48.931889,"http://maps.google.de/maps?f=q&source=s_q&hl=de&geocode=&q=48.931889, 9.179229&z=16&iwloc=A",https://portal.wdf.sap.corp/irj/portal?NavigationTarget=navurl://504615fee8711ee85ef5f9622cbfa8fb
HAM03,Tesdorpfstraße,GERMANY,HAM,Hamburg,20148,Tesdorpfstraße 8,9.991927,53.563312,"http://maps.google.de/maps?f=q&source=s_q&hl=de&geocode=&q=53.563312, 9.991927&z=16&iwloc=A",https://go.sap.corp/HAM03
HAN03,Roderbruchstraße 21,GERMANY,HAN,Hannover,30655,Roderbruchstraße 21,9.803461,52.394693,"http://maps.google.de/maps?f=q&source=s_q&hl=de&geocode=&q=52.394693, 9.803461&z=16&iwloc=A",https://go.sap.corp/nx4
HBG01,Schwarzwaldstraße 99 (Sybase),GERMANY,HBG,Herrenberg,71083,Schwarzwaldstraße 99,8.860302,48.59777,http://maps.google.de/maps?f=q&source=s_q&hl=de&geocode=&q=48.59777 8.860302&z=16&iwloc=A,https://portal.wdf.sap.corp/irj/portal?NavigationTarget=navurl://b79a16db80bd3c27106e841b54763239
HDL01,Landfriedkomplex Heidelberg,GERMANY,HDL,Heidelberg,69115,Bergheimer Straße 147,8.675853,49.407622,"http://maps.google.de/maps?f=q&source=s_q&hl=de&geocode=&q=49.407622, 8.675853&z=16&iwloc=A",https://go.sap.corp/HDL01Heidelberg
HDL02,Landfriedkomplex Mittelbau Ost,GERMANY,HDL,Heidelberg,69115,Bergheimer Str. 139-151,8.6753734,49.4073917,http://maps.google.de/maps?f=q&source=s_q&hl=de&geocode=&q=49.4073917 8.6753734&z=16&iwloc=A,https://go.sap.corp/o88
KAR01,Vincenz-Prießnitz-Straße 1,GERMANY,KAR,Karlsruhe,76131,Vincenz-Prießnitz-Straße 1,8.424172,49.013032,"http://maps.google.de/maps?f=q&source=s_q&hl=de&geocode=&q=49.013032, 8.424172&z=16&iwloc=A",https://portal.wdf.sap.corp/irj/portal?NavigationTarget=navurl://225dbbadd4f7005f3702f95aa7705255
MAK01,Dornierstraße 3 (TechniData),GERMANY,MAK,Markdorf,88677,Dornierstraße 3,9.403181,47.714165,http://maps.google.de/maps?f=q&source=s_q&hl=de&geocode=&q=47.714165 9.403181&z=16&iwloc=A,https://portal.wdf.sap.corp/irj/portal?NavigationTarget=navurl://e16743380675caba9e530fca52b7a779
MAK02,Robert-Bosch-Straße 20 (TechniData),GERMANY,MAK,Markdorf,88677,Robert-Bosch-Straße 20,9.404389,47.710747,"http://maps.google.de/maps?f=q&source=s_q&hl=de&geocode=&q=47.710747, 9.404389&z=16&iwloc=A",https://portal.wdf.sap.corp/irj/portal?NavigationTarget=navurl://68ac76471d60825340f1f34b87730333
MAN02,Hangar,GERMANY,MAN,Mannheim,68163,Seckenheimer Landstraße 170,8.522452,49.476977,http://maps.google.de/maps?f=q&source=s_q&hl=de&geocode=&q=49.476977 8.522452&z=16&iwloc=A,
MAN06,"Q7,1",GERMANY,MAN,Mannheim,68161,"Q7,1",8.4718083,49.486451,http://maps.google.de/maps?f=q&source=s_q&hl=de&geocode=&q=49.486451 8.4718083&z=16&iwloc=A,
MUE01,Zeppelinstraße 2,GERMANY,MUE,Munich,85399,Zeppelinstraße 2,11.73692,48.331876,"http://maps.google.de/maps?f=q&source=s_q&hl=de&geocode=&q=48.331876, 11.736920&z=16&iwloc=A",https://portal.wdf.sap.corp/irj/portal?NavigationTarget=navurl://78dc5c0cf3d1557bf456c2f49d4cd449
MUE45,20 Oskar-von-Miler Ring (Qualtrics),GERMANY,MUE,Munich,80333,20 Oskar-von-Miler Ring,11.57646,48.144923,"http://maps.google.de/maps?f=q&source=s_q&hl=de&geocode=&q=48.144923, 11.576460&z=16&iwloc=A",
MUE75,Nymphenburger Str. 86 (Hybris),GERMANY,MUE,Munich,80636,Nymphenburger Str. 86,11.547192,48.150839,"http://maps.google.de/maps?f=q&source=s_q&hl=de&geocode=&q=48.150839, 11.547192&z=16&iwloc=A",https://go.sap.corp/nx5
MUE76,Nymphenburger Str. 82 (Hybris),GERMANY,MUE,Munich,80636,Nymphenburger Str. 82,11.547,48.150086,"http://maps.google.de/maps?f=q&source=s_q&hl=de&geocode=&q=48.150086, 11.547000&z=16&iwloc=A",https://go.sap.corp/nx6
POT01,Konrad-Zuse-Ring 10,GERMANY,POT,Potsdam,14469,Konrad-Zuse-Ring 10,13.055314,52.434958,"http://maps.google.de/maps?f=q&source=s_q&hl=de&geocode=&q=52.434958, 13.055314&z=16&iwloc=A",https://go.sap.corp/nx7
POT04,Konrad-Zuse-Ring,GERMANY,POT,Potsdam,14469,Konrad-Zuse-Ring 8,13.055502,52.434329,"http://maps.google.de/maps?f=q&source=s_q&hl=de&geocode=&q=52.434329, 13.055502&z=16&iwloc=A",https://go.sap.corp/nq1
POT05,Konrad-Zuse-Ring,GERMANY,POT,Potsdam,14469,Konrad-Zuse-Ring,13.05533,52.4339,"http://maps.google.de/maps?f=q&source=s_q&hl=de&geocode=&q=52.43390, 13.05533&z=16&iwloc=A",
POT06,Konrad-Zuse-Ring 14,GERMANY,POT,Potsdam,14469,Konrad-Zuse-Ring 14,13.05338,52.43503,"http://maps.google.de/maps?f=q&source=s_q&hl=de&geocode=&q=52.43503, 13.05338&z=16&iwloc=A",
ROT01,LCR,GERMANY,ROT,St. Leon-Rot,68789,Opelstraße 6,8.643009,49.24758,"http://maps.google.de/maps?f=q&source=s_q&hl=de&geocode=&q=49.247580, 8.643009&z=16&iwloc=A",https://go.sap.corp/nx8
ROT03,SUR,GERMANY,ROT,St. Leon-Rot,68789,SAP-Allee 27,8.639189,49.240866,"http://maps.google.de/maps?f=q&source=s_q&hl=de&geocode=&q=49.240866, 8.639189&z=16&iwloc=A",https://portal.wdf.sap.corp/irj/portal?NavigationTarget=navurl://9d0b4cdcbab07c70f4b1b1b82b338c82
ROT04,SCR,GERMANY,ROT,St. Leon-Rot,68789,SAP-Allee 29 (Raiffeisenring 45),8.638152,49.242178,"http://maps.google.de/maps?f=q&source=s_q&hl=de&geocode=&q=49.242178, 8.638152&z=16&iwloc=A",https://portal.wdf.sap.corp/irj/portal?NavigationTarget=navurl://d10b1e9dd5b9a055ebdbe38240d13e79
ROT05,SCR2,GERMANY,ROT,St. Leon-Rot,68789,SAP-Allee 28 (Raiffeisenring 44),8.639672,49.242622,"http://maps.google.de/maps?f=q&source=s_q&hl=de&geocode=&q=49.242622, 8.639672&z=16&iwloc=A",https://portal.wdf.sap.corp/irj/portal?NavigationTarget=navurl://366c9175fc68928c3c5a7aaac654f79d
ROT06,RZ1,GERMANY,ROT,St. Leon-Rot,68789,SAP Allee 13a,8.642955,49.243314,"http://maps.google.de/maps?f=q&source=s_q&hl=de&geocode=&q=49.243314, 8.642955&z=16&iwloc=A",
ROT07,BHKW,GERMANY,ROT,St. Leon-Rot,68789,SAP Allee 13,8.643469,49.243548,"http://maps.google.de/maps?f=q&source=s_q&hl=de&geocode=&q=49.243548, 8.643469&z=16&iwloc=A",
ROT08,Car Park 1,GERMANY,ROT,St. Leon-Rot,68789,SAP Allee (Sachsstraße),8.639986,49.241997,"http://maps.google.de/maps?f=q&source=s_q&hl=de&geocode=&q=49.241997, 8.639986&z=16&iwloc=A",https://portal.wdf.sap.corp/irj/portal?NavigationTarget=navurl://fe16714f013033a6822663e74859e80d
ROT09,Car Park 2,GERMANY,ROT,St. Leon-Rot,68789,SAP-Allee (Sachsstraße),8.64064,49.242129,http://maps.google.de/maps?f=q&source=s_q&hl=de&geocode=&q=49.242129 8.64064&z=16&iwloc=A,https://portal.wdf.sap.corp/irj/portal?NavigationTarget=navurl://fe16714f013033a6822663e74859e80d
ROT10,Car Park 3,GERMANY,ROT,St. Leon-Rot,68789,SAP-Allee (Sachsstraße),8.641219,49.242318,http://maps.google.de/maps?f=q&source=s_q&hl=de&geocode=&q=49.242318 8.641219&z=16&iwloc=A,https://portal.wdf.sap.corp/irj/portal?NavigationTarget=navurl://fe16714f013033a6822663e74859e80d
ROT11,Car Park 4,GERMANY,ROT,St. Leon-Rot,68789,SAP-Allee,8.642018,49.242539,http://maps.google.de/maps?f=q&source=s_q&hl=de&geocode=&q=49.242539 8.642018&z=16&iwloc=A,https://portal.wdf.sap.corp/irj/portal?NavigationTarget=navurl://19c12bad890029988f92cd82660dfcf9
ROT12,Warehouse (LCR),GERMANY,ROT,St. Leon-Rot,68789,Opelstraße 6a,8.642068,49.247242,"http://maps.google.de/maps?f=q&source=s_q&hl=de&geocode=&q=49.247242, 8.642068&z=16&iwloc=A",
ROT13,RZ2,GERMANY,ROT,St. Leon-Rot,68789,SAP-Allee 19,8.643655,49.240491,"http://maps.google.de/maps?f=q&source=s_q&hl=de&geocode=&q=49.240491, 8.643655&z=16&iwloc=A",
ROT14,Control Center,GERMANY,ROT,St. Leon-Rot,68789,SAP-Allee 17,8.643811,49.241212,"http://maps.google.de/maps?f=q&source=s_q&hl=de&geocode=&q=49.241212, 8.643811&z=16&iwloc=A",https://portal.wdf.sap.corp/irj/portal?NavigationTarget=navurl://03d6d03e4bb00275b99675b423c8927b
ROT15,SAP Allee 15,GERMANY,ROT,St. Leon-Rot,68789,SAP-Allee 15,8.643601,49.241979,http://maps.google.de/maps?f=q&source=s_q&hl=de&geocode=&q=49.241979 8.643601&z=16&iwloc=A,https://go.sap.corp/ROT20
ROT16,NEA,GERMANY,ROT,St. Leon-Rot,68789,SAP-Allee 13a,8.643494,49.243015,http://maps.google.de/maps?f=q&source=s_q&hl=de&geocode=&q=49.243015 8.643494&z=16&iwloc=A,
ROT18,Parking,GERMANY,ROT,St. Leon-Rot,68789,SAP-Allee,8.641647,49.240337,"http://maps.google.de/maps?f=q&source=s_q&hl=de&geocode=&q=49.240337, 8.641647&z=16&iwloc=A",
ROT19,Parking (Service ROT15),GERMANY,ROT,St. Leon-Rot,68789,SAP-Allee,8.642614,49.241928,"http://maps.google.de/maps?f=q&source=s_q&hl=de&geocode=&q=49.241928, 8.642614&z=16&iwloc=A",
ROT20,Parking 04/05,GERMANY,ROT,St. Leon-Rot,68789,SAP-Allee,8.639602,49.241813,"http://maps.google.de/maps?f=q&source=s_q&hl=de&geocode=&q=49.241813, 8.639602&z=16&iwloc=A",
ROT22,SAP Allee 25,GERMANY,ROT,St. Leon-Rot,68789,SAP-Allee 25,8.640763,49.241219,"http://maps.google.de/maps?f=q&source=s_q&hl=de&geocode=&q=49.241219, 8.640763&z=16&iwloc=A",https://portal.wdf.sap.corp/irj/portal?NavigationTarget=navurl://dde423e201ac320ca7a90d232c41b6f4
ROT23,Parking (LCR),GERMANY,ROT,St. Leon-Rot,68789,SAP-Allee,8.642206,49.242175,http://maps.google.de/maps?f=q&source=s_q&hl=de&geocode=&q=49.242175 8.642206&z=16&iwloc=A,
ROT24,Prefabricated Building (SAP-Allee 4),GERMANY,ROT,St. Leon-Rot,68789,SAP-Allee 4,8.640215,49.24544,http://maps.google.de/maps?f=q&source=s_q&hl=de&geocode=&q=49.24544 8.640215&z=16&iwloc=A,https://go.sap.corp/ROT24
STI01,Neue Bahnhofstraße 21,GERMANY,STI,St. Ingbert,66386,Neue Bahnhofstraße 21,7.111558,49.27404,"http://maps.google.de/maps?f=q&source=s_q&hl=de&geocode=&q=49.274040, 7.111558&z=16&iwloc=A",https://portal.wdf.sap.corp/irj/portal?NavigationTarget=navurl://f4485d4d399b4f38d3bdef2ec715d78a
STI02,Neue Bahnhofstraße 37,GERMANY,STI,St. Ingbert,66386,Neue Bahnhofstraße 37,7.109724,49.273419,"http://maps.google.de/maps?f=q&source=s_q&hl=de&geocode=&q=49.273419, 7.109724&z=16&iwloc=A",https://portal.wdf.sap.corp/irj/portal?NavigationTarget=navurl://f4485d4d399b4f38d3bdef2ec715d78a
STI03,Neue Bahnhofstraße 35,GERMANY,STI,St. Ingbert,66386,Neue Bahnhofstraße 35,7.110084,49.273431,"http://maps.google.de/maps?f=q&source=s_q&hl=de&geocode=&q=49.273431, 7.110084&z=16&iwloc=A",https://portal.wdf.sap.corp/irj/portal?NavigationTarget=navurl://f4485d4d399b4f38d3bdef2ec715d78a
STI04,Neue Bahnhofstraße 21,GERMANY,STI,St. Ingbert,66386,Neue Bahnhofstraße 21,7.110953,49.273301,"http://maps.google.de/maps?f=q&source=s_q&hl=de&geocode=&q=49.273301, 7.110953&z=16&iwloc=A",https://portal.wdf.sap.corp/irj/portal?NavigationTarget=navurl://f4485d4d399b4f38d3bdef2ec715d78a
STI05,Neue Bahnhofstraße 39,GERMANY,STI,St. Ingbert,66386,Neue Bahnhofstraße 39,7.109983,49.272953,"http://maps.google.de/maps?f=q&source=s_q&hl=de&geocode=&q=49.272953, 7.109983&z=16&iwloc=A",https://portal.wdf.sap.corp/irj/portal?NavigationTarget=navurl://f4485d4d399b4f38d3bdef2ec715d78a
STI06,Ensheimer Straße 6,GERMANY,STI,St. Ingbert,66386,Ensheimer Straße 6,7.112259,49.27374,"http://maps.google.de/maps?f=q&source=s_q&hl=de&geocode=&q=49.273740, 7.112259&z=16&iwloc=A",https://portal.wdf.sap.corp/irj/portal?NavigationTarget=navurl://f4485d4d399b4f38d3bdef2ec715d78a
STI08,Ensheimer Straße 28,GERMANY,STI,St. Ingbert,66386,Ensheimer Straße 28,7.111442,49.272725,"http://maps.google.de/maps?f=q&source=s_q&hl=de&geocode=&q=49.272725, 7.111442&z=16&iwloc=A",https://portal.wdf.sap.corp/irj/portal?NavigationTarget=navurl://f4485d4d399b4f38d3bdef2ec715d78a
STI09,Ensheimer Straße 30,GERMANY,STI,St. Ingbert,66386,Ensheimer Straße 30,7.111204,49.272574,"http://maps.google.de/maps?f=q&source=s_q&hl=de&geocode=&q=49.272574, 7.111204&z=16&iwloc=A",https://portal.wdf.sap.corp/irj/portal?NavigationTarget=navurl://f4485d4d399b4f38d3bdef2ec715d78a
STI11,Neue Bahnhofstraße 31,GERMANY,STI,St. Ingbert,66386,Neue Bahnhofstraße 31,7.110443,49.273626,"http://maps.google.de/maps?f=q&source=s_q&hl=de&geocode=&q=49.273626, 7.110443&z=16&iwloc=A",https://portal.wdf.sap.corp/irj/portal?NavigationTarget=navurl://f4485d4d399b4f38d3bdef2ec715d78a
STI12,Neue Bahnhofstraße (Parking),GERMANY,STI,St. Ingbert,66386,Neue Bahnhofstraße,7.10924,49.273889,"http://maps.google.de/maps?f=q&source=s_q&hl=de&geocode=&q=49.273889, 7.109240&z=16&iwloc=A",https://portal.wdf.sap.corp/irj/portal?NavigationTarget=navurl://f4485d4d399b4f38d3bdef2ec715d78a
SXF01,Schoenefeld,GERMANY,SXF,Schoenefeld,12529,Mittelstraße 5/5a,13.509138,52.38841,http://maps.google.de/maps?f=q&source=s_q&hl=de&geocode=&q=52.388410 13.509138&z=16&iwloc=A,https://go.sap.corp/o8c
WDF01,EVZ,GERMANY,WDF,Walldorf,69190,Dietmar-Hopp-Allee 16,8.641606,49.293721,http://maps.google.de/maps?f=q&source=s_q&hl=de&geocode=&q=49.293721 8.641606&z=16&iwloc=A,https://portal.wdf.sap.corp/irj/portal?NavigationTarget=navurl://92891ba24dcd8df8a823f1b32011ca99
WDF02,SSC,GERMANY,WDF,Walldorf,69190,Dietmar-Hopp-Allee 14,8.642818,49.294589,http://maps.google.de/maps?f=q&source=s_q&hl=de&geocode=&q=49.294589 8.642818&z=16&iwloc=A,https://portal.wdf.sap.corp/irj/portal?NavigationTarget=navurl://8dd602c949a5ffa003c1a2290d206505
WDF03,BAC,GERMANY,WDF,Walldorf,69190,Robert-Bosch-Strasse 30/34,8.64392,49.292717,http://maps.google.de/maps?f=q&source=s_q&hl=de&geocode=&q=49.292717 8.643920&z=16&iwloc=A,https://portal.wdf.sap.corp/irj/portal?NavigationTarget=navurl://82e11b39d8d8e2820285f8b53e19e758
WDF04,,GERMANY,WDF,Walldorf,69190,Dietmar-Hopp-Allee 15a,8.644469,49.294242,http://maps.google.de/maps?f=q&source=s_q&hl=de&geocode=&q=49.294242 8.644469&z=16&iwloc=A,https://portal.wdf.sap.corp/irj/portal?NavigationTarget=navurl://deb3b91fd5b2dd595318a77424da5d29
WDF05,ISZ,GERMANY,WDF,Walldorf,69190,Dietmar-Hopp-Allee 20,8.639982,49.292684,http://maps.google.de/maps?f=q&source=s_q&hl=de&geocode=&q=49.292684 8.639982&z=16&iwloc=A,https://portal.wdf.sap.corp/irj/portal?NavigationTarget=navurl://85c031b0aff21fabab664aec7565e634
WDF06,ICC,GERMANY,WDF,Walldorf,69190,Dietmar-Hopp-Allee 23,8.64073125,49.29185199,http://maps.google.com/maps?f=q&source=s_q&hl=de&geocode=&q=49.29185199 8.64073125&z=16&iwloc=A,https://portal.wdf.sap.corp/irj/portal?NavigationTarget=navurl://8d3b4c80a364f198ac88d477b96523fa
WDF07,SXT,GERMANY,WDF,Walldorf,69190,Daimlerstraße 34,8.6429,49.290949,http://maps.google.de/maps?f=q&source=s_q&hl=de&geocode=&q=49.290949 8.642900&z=16&iwloc=A,https://go.sap.corp/WDF07
WDF08,MPS,GERMANY,WDF,Walldorf,69190,Max-Planck-Straße 8,8.645317,49.287643,http://maps.google.de/maps?f=q&source=s_q&hl=de&geocode=&q=49.287643 8.645317&z=16&iwloc=A,https://portal.wdf.sap.corp/irj/portal?NavigationTarget=navurl://ccad94b641ab45f2cb8c56ad8ed0e4ad
WDF10,A25,GERMANY,WDF,Walldorf,69190,Altrottstraße 25,8.647458,49.295735,http://maps.google.de/maps?f=q&source=s_q&hl=de&geocode=&q=49.295735 8.647458&z=16&iwloc=A,https://portal.wdf.sap.corp/irj/portal?NavigationTarget=navurl://4208437a0bddeb515618f25bd3c758ea
WDF11,A26,GERMANY,WDF,Walldorf,69190,Altrottstraße 26,8.646683,49.295497,http://maps.google.de/maps?f=q&source=s_q&hl=de&geocode=&q=49.295497 8.646683&z=16&iwloc=A,https://portal.wdf.sap.corp/irj/portal?NavigationTarget=navurl://1d2c820de367cab22db6b08ac2080fec
WDF12,PAP,GERMANY,WDF,Walldorf,69190,Altrottstraße 31,8.64804,49.29525,,
WDF13,Real Tech Building,GERMANY,WDF,Walldorf,69190,Industriestraße 39c+41,8.648955,49.293034,http://maps.google.de/maps?f=q&source=s_q&hl=de&geocode=&q=49.293034 8.648955&z=16&iwloc=A,https://portal.wdf.sap.corp/irj/portal?NavigationTarget=navurl://547f8e95b518ef248bd9fccd62eafb26
WDF14,Car Park 1,GERMANY,WDF,Walldorf,69190,Dietmar-Hopp-Allee 12,8.643451,49.295306,http://maps.google.de/maps?f=q&source=s_q&hl=de&geocode=&q=49.295306 8.643451&z=16&iwloc=A,https://go.sap.corp/nxp
WDF15,Car Park 2,GERMANY,WDF,Walldorf,69190,Daimlerstraße 37a,8.643701,49.291481,http://maps.google.de/maps?f=q&source=s_q&hl=de&geocode=&q=49.291481 8.643701&z=16&iwloc=A,https://go.sap.corp/nxq
WDF16,Car Park 3,GERMANY,WDF,Walldorf,69190,Robert-Bosch-Straße 33,8.644955,49.293998,http://maps.google.de/maps?f=q&source=s_q&hl=de&geocode=&q=49.293998 8.644955&z=16&iwloc=A,https://go.sap.corp/nxr
WDF18,Campus 1,GERMANY,WDF,Walldorf,69190,Hasso-Plattner-Ring 1,8.639442,49.29425,http://maps.google.de/maps?f=q&source=s_q&hl=de&geocode=&q=49.294250 8.639442&z=16&iwloc=A,https://go.sap.corp/nxs
WDF19,Campus 2,GERMANY,WDF,Walldorf,69190,Hasso-Plattner-Ring 3,8.63808,49.293544,http://maps.google.de/maps?f=q&source=s_q&hl=de&geocode=&q=49.293544 8.638080&z=16&iwloc=A,https://go.sap.corp/nxt
WDF20,Canteen,GERMANY,WDF,Walldorf,69190,Hasso-Plattner-Ring 5,8.637571,49.294093,http://maps.google.de/maps?f=q&source=s_q&hl=de&geocode=&q=49.294093 8.637571&z=16&iwloc=A,https://portal.wdf.sap.corp/irj/portal?NavigationTarget=navurl://e2a4010f1d0beaeb6a28f68145e2ecfe
WDF21,Campus 2,GERMANY,WDF,Walldorf,69190,Hasso-Plattner-Ring 7,8.636756,49.294456,http://maps.google.de/maps?f=q&source=s_q&hl=de&geocode=&q=49.294456 8.636756&z=16&iwloc=A,https://portal.wdf.sap.corp/irj/portal?NavigationTarget=navurl://e2a4010f1d0beaeb6a28f68145e2ecfe
WDF23,Car Park,GERMANY,WDF,Walldorf,69190,Otto-Hahn-Straße 2,8.640717,49.290304,http://maps.google.de/maps?f=q&source=s_q&hl=de&geocode=&q=49.290304 8.640717&z=16&iwloc=A,https://portal.wdf.sap.corp/irj/portal?NavigationTarget=navurl://61a09c75e47f1030a1668d5e57c18261
WDF24,Car Park,GERMANY,WDF,Walldorf,69190,Otto-Hahn-Straße 8,8.644913,49.286961,http://maps.google.de/maps?f=q&source=s_q&hl=de&geocode=&q=49.286961 8.644913&z=16&iwloc=A,https://portal.wdf.sap.corp/irj/portal?NavigationTarget=navurl://fdf16648bd49de87e17c32dafebea92c
WDF29,Parking,GERMANY,WDF,Walldorf,69190,Dietmar-Hopp-Allee,8.644803,49.29587,http://maps.google.de/maps?f=q&source=s_q&hl=de&geocode=&q=49.29587 8.644803&z=16&iwloc=A,
WDF38,Parking (ISZ),GERMANY,WDF,Walldorf,69190,Dietmar-Hopp-Allee 20,8.641092,49.29269,http://maps.google.de/maps?f=q&source=s_q&hl=de&geocode=&q=49.292690 8.641092&z=16&iwloc=A,
WDF39,Parking Customer (EVZ),GERMANY,WDF,Walldorf,69190,Dietmar-Hopp-Allee 16,8.643493,49.294302,http://maps.google.de/maps?f=q&source=s_q&hl=de&geocode=&q=49.294302 8.643493&z=16&iwloc=A,
WDF40,Car Park 1 (Campus),GERMANY,WDF,Walldorf,69190,Hasso-Plattner-Ring 9-11,8.63374,49.294369,http://maps.google.de/maps?f=q&source=s_q&hl=de&geocode=&q=49.294369 8.633740&z=16&iwloc=A,https://portal.wdf.sap.corp/irj/portal?NavigationTarget=navurl://90a4e22a89a356444fe3fbd033472cf2
WDF42,Parking Customer (Campus),GERMANY,WDF,Walldorf,69190,Hasso-Plattner-Ring,8.635646,49.295336,http://maps.google.de/maps?f=q&source=s_q&hl=de&geocode=&q=49.295336 8.635646&z=16&iwloc=A,
WDF44,Guesthouse,GERMANY,WDF,Walldorf,69190,Dietmar-Hopp-Allee 15,8.645791,49.295162,http://maps.google.de/maps?f=q&source=s_q&hl=de&geocode=&q=49.295162 8.645791&z=16&iwloc=A,https://portal.wdf.sap.corp/irj/portal?NavigationTarget=navurl://c1edcfd505ea8a6e99fad3f3d4420635
WDF45,Schweickert,GERMANY,WDF,Walldorf,69190,Dietmar-Hopp-Allee 19,8.6417,49.292577,http://maps.google.de/maps?f=q&source=s_q&hl=de&geocode=&q=49.292577 8.641700&z=16&iwloc=A,
WDF48,Daimlerstraße 40 (Warehouse),GERMANY,WDF,Walldorf,69190,Daimlerstraße 40,8.646338,49.288657,http://maps.google.de/maps?f=q&source=s_q&hl=de&geocode=&q=49.288657 8.646338&z=16&iwloc=A,
WDF49,Dietmar-Hopp-Allee 17,GERMANY,WDF,Walldorf,69190,Dietmar-Hopp-Allee 17,8.642174,49.292805,http://maps.google.de/maps?f=q&source=s_q&hl=de&geocode=&q=49.292805 8.642174&z=16&iwloc=A,https://go.sap.corp/WDF49
WDF50,Technikzentrale (NEUBAU),GERMANY,WDF,Walldorf,69190,Dietmar-Hopp-Allee 22,8.639142,49.291699,http://maps.google.de/maps?f=q&source=s_q&hl=de&geocode=&q=49.291699 8.639142&z=16&iwloc=A,
WDF51,Data Center (Neubau),GERMANY,WDF,Walldorf,69190,Hasso-Plattner-Ring 13,8.631858,49.293672,http://maps.google.de/maps?f=q&source=s_q&hl=de&geocode=&q=49.293672 8.631858&z=16&iwloc=A,
WDF52,Parking-Industriestrasse,GERMANY,WDF,Walldorf,69190,Industriestrasse 48-50,8.648202,49.29255,http://maps.google.de/maps?f=q&source=s_q&hl=de&geocode=&q=49.292550 8.648202&z=16&iwloc=A,
WDF53,Prefabricated Building (Hasso-Plattner-Ring 7a),GERMANY,WDF,Walldorf,69190,Hasso-Plattner-Ring 7a,8.635654,49.295365,http://maps.google.de/maps?f=q&source=s_q&hl=de&geocode=&q=49.295365 8.635654&z=16&iwloc=A,https://go.sap.corp/WDF53
WDF54,Daimlerstrasse 38,GERMANY,WDF,Walldorf,69190,Daimlerstrasse 38,8.644882,49.288923,http://maps.google.de/maps?f=q&source=s_q&hl=de&geocode=&q=49.288923 8.644882&z=16&iwloc=A,https://go.sap.corp/WDF54
WDF55,"Food Hall, Carl-Benz-Straße 8",GERMANY,WDF,Walldorf,69190,Carl-Benz-Strasse 8,8.644546,49.288704,http://maps.google.de/maps?f=q&source=s_q&hl=de&geocode=&q=49.288704 8.644546&z=16&iwloc=A,
WDF56,Industriestrasse 45 (Warzel),GERMANY,WDF,Walldorf,69190,Industriestrasse 45,8.6496702,49.2920202,http://maps.google.de/maps?f=q&source=s_q&hl=de&geocode=&q=49.2920202 8.6496702&z=16&iwloc=A,
WDF57,Industriestrasse 43 (Warzel),GERMANY,WDF,Walldorf,69190,Industriestrasse 43,8.6496702,49.2920202,http://maps.google.de/maps?f=q&source=s_q&hl=de&geocode=&q=49.2920202 8.6496702&z=16&iwloc=A,
WDF58,Dietmar-Hopp-Allee 21,GERMANY,WDF,Walldorf,69190,Dietmar-Hopp-Allee 21,"86,412,602",49.2921755,http://maps.google.de/maps?f=q&source=s_q&hl=de&geocode=&q=49.2921755 8.6412602&z=16&iwloc=A,
WDF59,Otto-Hahn-Str. (Parkhaus 14),GERMANY,WDF,Walldorf,69190,Otto-Hahn-Strasse,8.642483,49.289041,http://maps.google.de/maps?f=q&source=s_q&hl=de&geocode=&q=49.289041 8.642483&z=16&iwloc=A,
WDF60,Hochholzer Weg,GERMANY,WDF,Walldorf,69190,Hochholzer Weg,8.632963,49.291016,http://maps.google.de/maps?f=q&source=s_q&hl=de&geocode=&q=49.291016 8.632963&z=16&iwloc=A,
WDF80,Daimlerstrasse 30,GERMANY,WDF,Walldorf,69190,Daimlerstrasse 30,8.642722,49.291416,http://maps.google.de/maps?f=q&source=s_q&hl=de&geocode=&q=49.291416 8.642722&z=16&iwloc=A,
